"NOMBRE","SUBCATEGORIA","Direccion","Latitud","Longitud","TIPO","AÑO CONSTRUCCIÓN","SENTIDO","CAPACIDAD"
"Baquedano","ESTACIONES DE METRO","","-33.437036","-70.633527","","","",""
"Francisco Bilbao","ESTACIONES DE METRO","","-33.431484","-70.584641","","","",""
"Los Leones","ESTACIONES DE METRO","","-33.422164","-70.60859","","","",""
"Manuel Montt","ESTACIONES DE METRO","","-33.428341","-70.619209","","","",""
"Parque Bustamante","ESTACIONES DE METRO","","-33.442787","-70.63163","","","",""
"Pedro de Valdivia","ESTACIONES DE METRO","","-33.425465","-70.614273","","","",""
"Santa Isabel","ESTACIONES DE METRO","","-33.447102","-70.630402","","","",""
"Tobalaba","ESTACIONES DE METRO","","-33.418145","-70.601353","","","",""
"Cristóbal Colón","ESTACIONES DE METRO","","-33.426224","-70.590973","","","",""
"Salvador","ESTACIONES DE METRO","","-33.433107","-70.626585","","","",""
"PLAZA FELIPE DAWES","ESTACIONAMIENTOS SUBTERRÁNEOS CONCESIONADOS","SUBSUELO NUEVA PROVIDENCIA CON DR. MANUEL BARROS BORGOÑO","-33.4290999","-70.6188565","","","",""
"PEDRO DE VALDIVIA","ESTACIONAMIENTOS SUBTERRÁNEOS CONCESIONADOS","SUBSUELO PROVIDENCIA ALT. 2025","-33.4233132","-70.6119552","","","",""
"GUARDIA VIEJA","ESTACIONAMIENTOS SUBTERRÁNEOS CONCESIONADOS","SUBSUELO PROVIDENCIA ALT. 2125","-33.4225051","-70.6108019","","","",""
"LYON","ESTACIONAMIENTOS SUBTERRÁNEOS CONCESIONADOS","SUBSUELO PROVIDENCIA ALT. 2211","-33.4217372","-70.6095761","","","",""
"MARCHANT PEREIRA","ESTACIONAMIENTOS SUBTERRÁNEOS CONCESIONADOS","SUBSUELO PROVIDENCIA ALT. 1941","-33.4246183","-70.613519","","","",""
"PEDRO DE VALDIVIA 963","ESTACIONAMIENTOS SUBTERRÁNEOS CONCESIONADOS","PEDRO DE VALDIVIA 963, ENTRADA POR CARLOS LARRAÍN CLARO","-33.432623","-70.609785","","","",""
"PC1","PARADEROS TRANSANTIAGO","PC1 - Parada 3 / (M) Manuel Montt","-33.4294825258123","-70.6193669235053","","","",""
"PC2","PARADEROS TRANSANTIAGO","PC2 - Parada 7 / (M) Pedro   De Valdivia","-33.4269088548349","-70.6159019687575","","","",""
"PC3","PARADEROS TRANSANTIAGO","PC3 - Parada 9 / (M) Pedro   De Valdivia","-33.4253319375985","-70.6118089508191","","","",""
"PC4","PARADEROS TRANSANTIAGO","PC4 - Av. Pedro De Valdivia Esq. / Carlos Antúnez","-33.4285529894509","-70.6106049475472","","","",""
"PC5","PARADEROS TRANSANTIAGO","PC5 - Parada 1 / Municipalidad   De Providencia","-33.43123394512","-70.6096350451013","","","",""
"PC6","PARADEROS TRANSANTIAGO","PC6 - Av. Pedro De Valdivia Esq. / Biarritz","-33.4337969788432","-70.6088629734909","","","",""
"PC7","PARADEROS TRANSANTIAGO","PC7 - Av. Pedro De Valdivia Esq. / Avenida Pocuro","-33.4360287253167","-70.6082050035324","","","",""
"PC8","PARADEROS TRANSANTIAGO","PC8 - Parada 3 / Plaza   Pedro De Valdivia","-33.438095969515","-70.6075890382024","","","",""
"PC9","PARADEROS TRANSANTIAGO","PC9 - Av. Pedro De Valdivia Esq. / Bustos","-33.4401810128462","-70.6071509701598","","","",""
"PC10","PARADEROS TRANSANTIAGO","PC10 - Parada  / The Kent School","-33.4424781013872","-70.6067317455559","","","",""
"PC11","PARADEROS TRANSANTIAGO","PC11 - Av. Pedro De Valdivia Esq. / Dr. P. Lautaro Ferrer","-33.445176008511","-70.6063020334066","","","",""
"PC12","PARADEROS TRANSANTIAGO","PC12 - Parada  / The Kent School","-33.4432819944758","-70.606419009786","","","",""
"PC13","PARADEROS TRANSANTIAGO","PC13 - Av. Pedro De Valdivia Esq. / Bustos","-33.4404283382604","-70.6069183412672","","","",""
"PC14","PARADEROS TRANSANTIAGO","PC14 - Parada 4 / Plaza   Pedro De Valdivia","-33.4378830452763","-70.6074779748565","","","",""
"PC15","PARADEROS TRANSANTIAGO","PC15 - Av. Pedro De Valdivia Esq. / Avenida Pocuro","-33.4363399908536","-70.6079099974787","","","",""
"PC16","PARADEROS TRANSANTIAGO","PC16 - Av. Pedro De Valdivia Esq. / Biarritz","-33.4338509955271","-70.608647987872","","","",""
"PC17","PARADEROS TRANSANTIAGO","PC17 - Parada 2 / Municipalidad   De Providencia","-33.4316399616288","-70.6093080356628","","","",""
"PC18","PARADEROS TRANSANTIAGO","PC18 - Parada  / Ucinf","-33.4288999544087","-70.6102420137313","","","",""
"PC19","PARADEROS TRANSANTIAGO","PC19 - Parada  / Instituto   Luis Campino","-33.4269549174202","-70.6109879978458","","","",""
"PC20","PARADEROS TRANSANTIAGO","PC20 - Parada 10 / (M) Pedro   De Valdivia","-33.4237838987031","-70.6122208549779","","","",""
"PC21","PARADEROS TRANSANTIAGO","PC21 - Parada 2 / (M) Pedro   De Valdivia","-33.4259558234239","-70.61522232882","","","",""
"PC37","PARADEROS TRANSANTIAGO","PC37 - Parada 4 / Avenida Suecia","-33.4206249914218","-70.6080200476189","","","",""
"PC22","PARADEROS TRANSANTIAGO","PC22 - Lota Esq. / Avenida Los Leones","-33.4234070673969","-70.6053359670304","","","",""
"PC23","PARADEROS TRANSANTIAGO","PC23 - Avenida Los Leones Esq. / Carlos Antúnez","-33.4269130190016","-70.6036739741718","","","",""
"PC24","PARADEROS TRANSANTIAGO","PC24 - Avenida Los Leones Esq. / Av. Eliodoro Yáñez","-33.4297800395528","-70.60290799361","","","",""
"PC25","PARADEROS TRANSANTIAGO","PC25 - Avenida Los Leones Esq. / Avenida Pocuro","-33.4343820459916","-70.6016577741371","","","",""
"PC26","PARADEROS TRANSANTIAGO","PC26 - Avenida Los Leones Esq. / Av. Francisco Bilbao","-33.4367160732262","-70.6010309663967","","","",""
"PC27","PARADEROS TRANSANTIAGO","PC27 - Avenida Los Leones Esq. / Bustos","-33.4391161148228","-70.6003759739338","","","",""
"PC28","PARADEROS TRANSANTIAGO","PC28 - Avenida Los Leones Esq. / Av. Diego De Almagro","-33.4413520823233","-70.5997579522909","","","",""
"PC29","PARADEROS TRANSANTIAGO","PC29 - Avenida Los Leones Esq. / Av. Diego De Almagro","-33.4417371348724","-70.5995020101211","","","",""
"PC30","PARADEROS TRANSANTIAGO","PC30 - Avenida Los Leones Esq. / Bustos","-33.4394201462959","-70.6001089794892","","","",""
"PC31","PARADEROS TRANSANTIAGO","PC31 - Avenida Los Leones Esq. / Av. Francisco Bilbao","-33.4371490815661","-70.6007350486552","","","",""
"PC32","PARADEROS TRANSANTIAGO","PC32 - Avenida Los Leones Esq. / El Vergel","-33.4339640964323","-70.6015980346549","","","",""
"PC33","PARADEROS TRANSANTIAGO","PC33 - Avenida Los Leones Esq. / Av. Eliodoro Yáñez","-33.4301308827578","-70.6026339367381","","","",""
"PC34","PARADEROS TRANSANTIAGO","PC34 - Avenida Los Leones Esq. / Carlos Antúnez","-33.427269093104","-70.60340002515","","","",""
"PC35","PARADEROS TRANSANTIAGO","PC35 - Avenida Los Leones Esq. / Lota","-33.4238878334195","-70.6042920221706","","","",""
"PC36","PARADEROS TRANSANTIAGO","PC36 - Parada  / Liceo Tajamar","-33.42172708177","-70.6050749991403","","","",""
"PC1148","PARADEROS TRANSANTIAGO","PC1148 - Parada 5 / Museo De   Los Tajamares","-33.4366828813133","-70.6321898280992","","","",""
"PC200","PARADEROS TRANSANTIAGO","PC200 - Parada 3 / Parque Balmaceda","-33.4352276242321","-70.6286120516417","","","",""
"PC201","PARADEROS TRANSANTIAGO","PC201 - Parada 3 / (M) Salvador","-33.4334270118169","-70.6260602100947","","","",""
"PC202","PARADEROS TRANSANTIAGO","PC202 - Parada 3 / Torres De Tajamar","-33.4302034721651","-70.6222459381249","","","",""
"PC38","PARADEROS TRANSANTIAGO","PC38 - Parada 5 / (M) Manuel Montt","-33.4306648118498","-70.6191819455044","","","",""
"PC39","PARADEROS TRANSANTIAGO","PC39 - Manuel Montt Esq. / Av. Eliodoro Yáñez","-33.4331275026341","-70.6175419019005","","","",""
"PC40","PARADEROS TRANSANTIAGO","PC40 - Manuel Montt Esq. / Keller","-33.4361018517555","-70.6164009915071","","","",""
"PC41","PARADEROS TRANSANTIAGO","PC41 - Manuel Montt Esq. / Av. Francisco Bilbao","-33.4390649096348","-70.615716959327","","","",""
"PC42","PARADEROS TRANSANTIAGO","PC42 - Manuel Montt Esq. / Clemente Fabres","-33.4415305284807","-70.6151077854667","","","",""
"PC43","PARADEROS TRANSANTIAGO","PC43 - Manuel Montt Esq. / Dalmacia","-33.4439885984782","-70.6145585737226","","","",""
"PC44","PARADEROS TRANSANTIAGO","PC44 - Manuel Montt Esq. / Santa Isabel","-33.4467108619141","-70.6139571048915","","","",""
"PC45","PARADEROS TRANSANTIAGO","PC45 - Av. Antonio Varas Esq. / Los Capitanes","-33.4444661255609","-70.6118512841799","","","",""
"PC46","PARADEROS TRANSANTIAGO","PC46 - Av. Antonio Varas Esq. / Vasconia","-33.4425202998379","-70.6124841705623","","","",""
"PC47","PARADEROS TRANSANTIAGO","PC47 - Av. Antonio Varas Esq. / Av. Francisco Bilbao","-33.4396348905783","-70.613480967198","","","",""
"PC48","PARADEROS TRANSANTIAGO","PC48 - Parada  / Campvs College","-33.4371549181773","-70.6142993396574","","","",""
"PC49","PARADEROS TRANSANTIAGO","PC49 - Av. Antonio Varas Esq. / Av. Eliodoro Yáñez","-33.4329436321747","-70.6156823307008","","","",""
"PC50","PARADEROS TRANSANTIAGO","PC50 - Parada  / Hospital   Calvo Mackenna","-33.4300389072057","-70.6166714678463","","","",""
"PC51","PARADEROS TRANSANTIAGO","PC51 - Parada 4 / Biblioteca De   Providencia","-33.4285741032282","-70.6171655135054","","","",""
"PC192","PARADEROS TRANSANTIAGO","PC192 - Parada 2 / (M) Manuel Montt","-33.4286482810292","-70.6201154943718","","","",""
"PC193","PARADEROS TRANSANTIAGO","PC193 - Parada 2 / Torres De Tajamar","-33.4302587697407","-70.6228230389178","","","",""
"PC194","PARADEROS TRANSANTIAGO","PC194 - Parada 2 / (M) Salvador","-33.4329967297596","-70.6260959602488","","","",""
"PC195","PARADEROS TRANSANTIAGO","PC195 - Parada 2 / Parque Balmaceda","-33.4351401572077","-70.6292489067714","","","",""
"PC196","PARADEROS TRANSANTIAGO","PC196 - Parada 2 / Museo De   Los Tajamares","-33.4361806194876","-70.6316379797121","","","",""
"PC340","PARADEROS TRANSANTIAGO","PC340 - Av. Los Conquistadores Esq. / Padre Letelier","-33.4172191348527","-70.6133872964635","","","",""
"PC341","PARADEROS TRANSANTIAGO","PC341 - Av. Los Conquistadores Esq. / Av. Pedro De Valdivia","-33.4189943045079","-70.6153805286168","","","",""
"PC370","PARADEROS TRANSANTIAGO","PC370 - Parada 1 / (M) Pedro   De Valdivia","-33.4253102665349","-70.6131688482661","","","",""
"PC152","PARADEROS TRANSANTIAGO","PC152 - Parada 3 / Guardia Vieja","-33.4241782450534","-70.6113357039474","","","",""
"PC153","PARADEROS TRANSANTIAGO","PC153 - Parada 3 / (M) Los Leones","-33.422956623736","-70.609767779083","","","",""
"PC206","PARADEROS TRANSANTIAGO","PC206 - Parada 1 / Hospital   Metropolitano","-33.4202082856184","-70.6063005823032","","","",""
"PC155","PARADEROS TRANSANTIAGO","PC155 - Parada 1 / (M) Tobalaba","-33.4189673928411","-70.6031929706311","","","",""
"PC1145","PARADEROS TRANSANTIAGO","PC1145 - El Cerro Esq. / Los Conquistadores","-33.4157049556687","-70.6113083126878","","","",""
"PC1221","PARADEROS TRANSANTIAGO","PC1221 - Manuel Montt Esq. / Nueva Providencia","-33.429161153552","-70.6201706284962","","","",""
"PC317","PARADEROS TRANSANTIAGO","PC317 - Parada  / Clínica Indisa","-33.4217298787496","-70.6180240247351","","","",""
"PC318","PARADEROS TRANSANTIAGO","PC318 - Avenida Santa María Esq. / Av. Pedro De Valdivia","-33.4208794054108","-70.6150626983091","","","",""
"PC349","PARADEROS TRANSANTIAGO","PC349 - Parada 6 / (M) Pedro   De Valdivia","-33.4244539222348","-70.613616005551","","","",""
"PC273","PARADEROS TRANSANTIAGO","PC273 - Parada 4 / (M) Manuel Montt","-33.4281648531415","-70.6189809602223","","","",""
"PC274","PARADEROS TRANSANTIAGO","PC274 - Parada 4 / Torres De Tajamar","-33.429666723974","-70.6219412477872","","","",""
"PC275","PARADEROS TRANSANTIAGO","PC275 - Parada 4 / (M) Salvador","-33.432638048566","-70.6257611060826","","","",""
"PC276","PARADEROS TRANSANTIAGO","PC276 - Parada 4 / Parque Balmaceda","-33.4347747250837","-70.628516033967","","","",""
"PC277","PARADEROS TRANSANTIAGO","PC277 - Parada 4 / Museo De   Los Tajamares","-33.4358726034221","-70.6308879844771","","","",""
"PA172","PARADEROS TRANSANTIAGO","PA172 - Parada 1 / (M) Parque   Bustamante","-33.4429598202725","-70.6336101981953","","","",""
"PA174","PARADEROS TRANSANTIAGO","PA174 - Parada 1 / (M) Santa Isabel","-33.4482086300354","-70.632038032178","","","",""
"PC82","PARADEROS TRANSANTIAGO","PC82 - Parada 2 / (M) Santa Isabel","-33.4486106687485","-70.631852997832","","","",""
"PC84","PARADEROS TRANSANTIAGO","PC84 - Parada 2 / (M) Parque   Bustamante","-33.44365021515","-70.6333127948192","","","",""
"PC86","PARADEROS TRANSANTIAGO","PC86 - Parada 4 / Plaza Italia","-33.4375656106115","-70.6351280437468","","","",""
"PC87","PARADEROS TRANSANTIAGO","PC87 - Parada 6 / Avenida Suecia","-33.4201388901857","-70.6068672449935","","","",""
"PC145","PARADEROS TRANSANTIAGO","PC145 - Parada 3 / Plaza Italia","-33.4375815476888","-70.6349660269753","","","",""
"PC147","PARADEROS TRANSANTIAGO","PC147 - Parada 1 / Museo De   Los Tajamares","-33.4359207099765","-70.6301795055247","","","",""
"PC148","PARADEROS TRANSANTIAGO","PC148 - Parada 1 / Parque Balmaceda","-33.434683018078","-70.6275274419997","","","",""
"PC149","PARADEROS TRANSANTIAGO","PC149 - Parada 1 / (M) Salvador","-33.4327650599433","-70.6253669034963","","","",""
"PC150","PARADEROS TRANSANTIAGO","PC150 - Parada 1 / Torres De Tajamar","-33.4298270360553","-70.6210345230898","","","",""
"PC151","PARADEROS TRANSANTIAGO","PC151 - Parada 1 / (M) Manuel Montt","-33.4285335860989","-70.6178096576641","","","",""
"PC154","PARADEROS TRANSANTIAGO","PC154 - Parada 3 / Hospital   Metropolitano","-33.4211719696835","-70.6071780506812","","","",""
"PC1016","PARADEROS TRANSANTIAGO","PC1016 - Parada 3 / (M) Tobalaba","-33.4176250367505","-70.6026750050562","","","",""
"PC187","PARADEROS TRANSANTIAGO","PC187 - Parada 2 / Hospital   Metropolitano","-33.4191170717386","-70.6058199855256","","","",""
"PC188","PARADEROS TRANSANTIAGO","PC188 - Parada 6 / (M) Los Leones","-33.4214932906129","-70.6094843775237","","","",""
"PC189","PARADEROS TRANSANTIAGO","PC189 - Parada 8 / (M) Pedro   De Valdivia","-33.4233569661882","-70.612332017233","","","",""
"PC191","PARADEROS TRANSANTIAGO","PC191 - Parada 2 / Biblioteca De   Providencia","-33.4272742818418","-70.6169658777558","","","",""
"PA487","PARADEROS TRANSANTIAGO","PA487 - Av. General Bustamante Esq. / Malaquías Concha","-33.44940717143","-70.6299626793726","","","",""
"PC1147","PARADEROS TRANSANTIAGO","PC1147 - Parada 2 / Plaza Italia","-33.4372339898367","-70.6334483302584","","","",""
"PC203","PARADEROS TRANSANTIAGO","PC203 - Parada 3 / (M) Pedro   De Valdivia","-33.4256265326156","-70.614000151995","","","",""
"PC204","PARADEROS TRANSANTIAGO","PC204 - Parada 1 / Guardia Vieja","-33.4238059519999","-70.6108931449532","","","",""
"PC205","PARADEROS TRANSANTIAGO","PC205 - Parada 1 / (M) Los Leones","-33.422178450167","-70.608641596897","","","",""
"PC207","PARADEROS TRANSANTIAGO","PC207 - Parada 2 / (M) Tobalaba","-33.4176048793188","-70.6047058713085","","","",""
"PC270","PARADEROS TRANSANTIAGO","PC270 - Parada 4 / Hospital   Metropolitano","-33.4183170504172","-70.6055070418408","","","",""
"PC271","PARADEROS TRANSANTIAGO","PC271 - Parada 2 / Avenida Suecia","-33.4204460338571","-70.6076960501164","","","",""
"PC272","PARADEROS TRANSANTIAGO","PC272 - Parada 2 / (M) Los Leones","-33.4230349643934","-70.6119059824092","","","",""
"PC199","PARADEROS TRANSANTIAGO","PC199 - Parada 3 / Museo De   Los Tajamares","-33.4363590247652","-70.6312802282512","","","",""
"PC301","PARADEROS TRANSANTIAGO","PC301 - Parada 4 / (M) Los Leones","-33.4219953201075","-70.610284109136","","","",""
"PC190","PARADEROS TRANSANTIAGO","PC190 - Parada 4 / (M) Pedro   De Valdivia","-33.4254019337141","-70.6146400070772","","","",""
"PC319","PARADEROS TRANSANTIAGO","PC319 - Avenida Santa María Esq. / Padre Letelier","-33.4191198983475","-70.6118520102359","","","",""
"PC320","PARADEROS TRANSANTIAGO","PC320 - Avenida Santa María Esq. / Puente Los Leones","-33.4177170139268","-70.6098190441932","","","",""
"PC338","PARADEROS TRANSANTIAGO","PC338 - Av. Los Conquistadores Esq. / Los Hidalgos","-33.4137015187713","-70.6094356632512","","","",""
"PC339","PARADEROS TRANSANTIAGO","PC339 - Av. Los Conquistadores Esq. / Avenida El Cerro","-33.415425957936","-70.6113753170519","","","",""
"PC342","PARADEROS TRANSANTIAGO","PC342 - Parada  / Clínica Indisa","-33.4207153980875","-70.6173340162475","","","",""
"PC343","PARADEROS TRANSANTIAGO","PC343 - Avenida Bellavista Esq. / Los Piñones","-33.4284856998921","-70.6253729467351","","","",""
"PC344","PARADEROS TRANSANTIAGO","PC344 - Avenida Bellavista Esq. / Magallanes","-33.4303867394075","-70.6277299950504","","","",""
"PC345","PARADEROS TRANSANTIAGO","PC345 - Avenida Bellavista Esq. / Capellán Abarzúa","-33.4322256247658","-70.6296599449899","","","",""
"PC346","PARADEROS TRANSANTIAGO","PC346 - Avenida Bellavista Esq. / Mallinkrodt","-33.4340187092253","-70.6327224880699","","","",""
"PC347","PARADEROS TRANSANTIAGO","PC347 - Parada 4 / Facultad   De Derecho","-33.4346555787098","-70.635080980215","","","",""
"PC350","PARADEROS TRANSANTIAGO","PC350 - Nueva De Lyon Esq. / Av. Andrés Bello","-33.4204889589314","-70.6109450097953","","","",""
"PC509","PARADEROS TRANSANTIAGO","PC509 - Parada 5 / (M) Tobalaba","-33.4184011177601","-70.6016809508258","","","",""
"PC379","PARADEROS TRANSANTIAGO","PC379 - Avenida Tobalaba Esq. / Lota","-33.4206311915258","-70.5985382541122","","","",""
"PC380","PARADEROS TRANSANTIAGO","PC380 - Avenida Tobalaba Esq. / Carmen Sylva","-33.422752164034","-70.5957659460602","","","",""
"PC381","PARADEROS TRANSANTIAGO","PC381 - Avenida Tobalaba Esq. / Carlos Antúnez","-33.4244142705101","-70.5937189326595","","","",""
"PC382","PARADEROS TRANSANTIAGO","PC382 - Parada 1 / (M) Cristóbal   Colón","-33.4262232551719","-70.5913910158325","","","",""
"PC383","PARADEROS TRANSANTIAGO","PC383 - Avenida Tobalaba Esq. / El Vergel","-33.4279672333893","-70.5891709855896","","","",""
"PC384","PARADEROS TRANSANTIAGO","PC384 - Avenida Tobalaba Esq. / Avenida Pocuro","-33.4301672982191","-70.5867909501475","","","",""
"PC385","PARADEROS TRANSANTIAGO","PC385 - Parada 7 / (M) Francisco Bilbao","-33.4313173452842","-70.5852819725485","","","",""
"PC386","PARADEROS TRANSANTIAGO","PC386 - Avenida Tobalaba Esq. / Eliécer Parada","-33.4339370614012","-70.5826048625488","","","",""
"PC978","PARADEROS TRANSANTIAGO","PC978 - Parada 2 / (M) Francisco Bilbao","-33.4323337718031","-70.5842627208475","","","",""
"PC388","PARADEROS TRANSANTIAGO","PC388 - Avenida Tobalaba Esq. / Las Azucenas","-33.4299003052353","-70.58666100212","","","",""
"PC389","PARADEROS TRANSANTIAGO","PC389 - Avenida Tobalaba Esq. / El Vergel","-33.4280882498714","-70.5887499649865","","","",""
"PC390","PARADEROS TRANSANTIAGO","PC390 - Parada 2 / (M) Cristóbal   Colón","-33.4264132298235","-70.5908256393356","","","",""
"PC391","PARADEROS TRANSANTIAGO","PC391 - Avenida Tobalaba Esq. / Martín De Zamora","-33.4249304290054","-70.5927835365788","","","",""
"PC392","PARADEROS TRANSANTIAGO","PC392 - Avenida Tobalaba Esq. / Carmen Sylva","-33.4232781744969","-70.5948230166049","","","",""
"PC393","PARADEROS TRANSANTIAGO","PC393 - Avenida Tobalaba Esq. / Lota","-33.4217677271382","-70.5966890705668","","","",""
"PC394","PARADEROS TRANSANTIAGO","PC394 - Avenida Tobalaba Esq. / Avenida El Bosque","-33.4203851215347","-70.5985560054958","","","",""
"PC1125","PARADEROS TRANSANTIAGO","PC1125 - Parada  / Costanera Center","-33.4167827652872","-70.6058472320151","","","",""
"PC1107","PARADEROS TRANSANTIAGO","PC1107 - Parada 6 / (M) Tobalaba","-33.4183496635136","-70.6012801644455","","","",""
"PC1044","PARADEROS TRANSANTIAGO","PC1044 - Parada 3 / (M) Santa Isabel","-33.4472897119518","-70.6311996811234","","","",""
"PC979","PARADEROS TRANSANTIAGO","PC979 - Av. Jaime Guzmán E. Esq. / Regina Pacis","-33.4468439181874","-70.5943226397996","","","",""
"PC980","PARADEROS TRANSANTIAGO","PC980 - Av. Jaime Guzmán E. Esq. / Avenida Holanda","-33.4454317456957","-70.5967715763525","","","",""
"PC1103","PARADEROS TRANSANTIAGO","PC1103 - Parada 7 / (M) Manuel Montt","-33.4303576812806","-70.6193794153161","","","",""
"PC973","PARADEROS TRANSANTIAGO","PC973 - Las Amapolas Esq. / Av. Francisco Bilbao","-33.4351652816139","-70.5883319909015","","","",""
"PC1022","PARADEROS TRANSANTIAGO","PC1022 - Parada 4 / (M) Francisco Bilbao","-33.4325733426957","-70.5856829944422","","","",""
"PC1122","PARADEROS TRANSANTIAGO","PC1122 - Eliecer Parada Esq. / Av. Diego De Almagro","-33.4353523358779","-70.583711034171","","","",""
"PC987","PARADEROS TRANSANTIAGO","PC987 - Avenida Echeñique Esq. / Renato Zanelli","-33.4426241692498","-70.5937389782592","","","",""
"PC988","PARADEROS TRANSANTIAGO","PC988 - El Aguilucho Esq. / Avenida Holanda","-33.4428491719971","-70.5963860415338","","","",""
"PC989","PARADEROS TRANSANTIAGO","PC989 - El Aguilucho Esq. / Avenida Los Leones","-33.4431400410579","-70.5991449106715","","","",""
"PC1149","PARADEROS TRANSANTIAGO","PC1149 - Dr. Pedro Lautaro Ferrer Esq. / Av. Ricardo Lyon","-33.4449490726742","-70.6027480941725","","","",""
"PC1150","PARADEROS TRANSANTIAGO","PC1150 - Dr. Pedro Lautaro Ferrer Esq. / Av. Pedro De Valdivia","-33.4453281705067","-70.6059108979136","","","",""
"PC1152","PARADEROS TRANSANTIAGO","PC1152 - Diagonal Oriente Esq. / Granada","-33.4456910019043","-70.608840955862","","","",""
"PC1153","PARADEROS TRANSANTIAGO","PC1153 - Diagonal Oriente Esq. / Av. Antonio Varas","-33.4463127209944","-70.6110678655917","","","",""
"PC1154","PARADEROS TRANSANTIAGO","PC1154 - Diagonal Oriente Esq. / Ob. Manuel De Alday","-33.4467719028039","-70.6143870372752","","","",""
"PC995","PARADEROS TRANSANTIAGO","PC995 - Santa Isabel Esq. / Av. J. Miguel Claro","-33.4455648925575","-70.6168960287826","","","",""
"PC996","PARADEROS TRANSANTIAGO","PC996 - Santa Isabel Esq. / Av. José M. Infante","-33.4448798683073","-70.6192489872129","","","",""
"PC997","PARADEROS TRANSANTIAGO","PC997 - Santa Isabel Esq. / Avenida Salvador","-33.4455947511428","-70.6226039930083","","","",""
"PC998","PARADEROS TRANSANTIAGO","PC998 - Santa Isabel Esq. / Avenida Italia","-33.4460998627308","-70.6249906120335","","","",""
"PC999","PARADEROS TRANSANTIAGO","PC999 - Condell Esq. / Marín","-33.44445967421","-70.626511021057","","","",""
"PC502","PARADEROS TRANSANTIAGO","PC502 - Av. Francisco Bilbao Esq. / Avenida Seminario","-33.4423676819572","-70.6291879281703","","","",""
"PC1003","PARADEROS TRANSANTIAGO","PC1003 - Santa Isabel Esq. / Avenida Seminario","-33.4469736936919","-70.6288169615832","","","",""
"PC1004","PARADEROS TRANSANTIAGO","PC1004 - Santa Isabel Esq. / Avenida Condell","-33.4464996820097","-70.6261280511648","","","",""
"PC1005","PARADEROS TRANSANTIAGO","PC1005 - Santa Isabel Esq. / Avenida Salvador","-33.4458347634686","-70.623082978785","","","",""
"PC1006","PARADEROS TRANSANTIAGO","PC1006 - Santa Isabel Esq. / Av. José M. Infante","-33.4451308635413","-70.6196959993494","","","",""
"PC1007","PARADEROS TRANSANTIAGO","PC1007 - Santa Isabel Esq. / Av. J. Miguel Claro","-33.4456828958895","-70.6170860455337","","","",""
"PC1008","PARADEROS TRANSANTIAGO","PC1008 - Santa Isabel Esq. / Ob. Manuel De Alday","-33.4469228951917","-70.6145579781744","","","",""
"PC618","PARADEROS TRANSANTIAGO","PC618 - Parada 1 / (M) Francisco Bilbao","-33.4311562927997","-70.5851750350138","","","",""
"PC700","PARADEROS TRANSANTIAGO","PC700 - Avenida Eliodoro Yáñez Esq. / J. De Dios Vial Correa","-33.4281660534124","-70.5947242013365","","","",""
"PC701","PARADEROS TRANSANTIAGO","PC701 - Avenida Eliodoro Yáñez Esq. / Hernando De Aguirre","-33.428716146027","-70.5973160133513","","","",""
"PC702","PARADEROS TRANSANTIAGO","PC702 - Avenida Eliodoro Yáñez Esq. / Doc. Roberto Del Río","-33.4292401259069","-70.5996769937402","","","",""
"PC703","PARADEROS TRANSANTIAGO","PC703 - Avenida Eliodoro Yáñez Esq. / Avenida Los Leones","-33.4298176502364","-70.6023640204533","","","",""
"PC704","PARADEROS TRANSANTIAGO","PC704 - Avenida Eliodoro Yáñez Esq. / Suecia","-33.4302390653376","-70.6042530407737","","","",""
"PC705","PARADEROS TRANSANTIAGO","PC705 - Avenida Eliodoro Yáñez Esq. / Av. Ricardo Lyon","-33.4306787807209","-70.6061959794242","","","",""
"PC706","PARADEROS TRANSANTIAGO","PC706 - Parada 4 / Municipalidad   De Providencia","-33.4312969120189","-70.609189412229","","","",""
"PC707","PARADEROS TRANSANTIAGO","PC707 - Avenida Eliodoro Yáñez Esq. / Matilde Salamanca","-33.4318349288529","-70.6113965498331","","","",""
"PC708","PARADEROS TRANSANTIAGO","PC708 - Avenida Eliodoro Yáñez Esq. / Darío Urzúa","-33.4325848781718","-70.6153300929888","","","",""
"PC1017","PARADEROS TRANSANTIAGO","PC1017 - Avenida Eliodoro Yáñez Esq. / Av. Manuel Montt","-33.4331068488133","-70.6171760298548","","","",""
"PC709","PARADEROS TRANSANTIAGO","PC709 - Avenida Eliodoro Yáñez Esq. / Av. J. Miguel Claro","-33.4335976115766","-70.6192547074802","","","",""
"PC710","PARADEROS TRANSANTIAGO","PC710 - Parada 6 / Torres De Tajamar","-33.4305458116265","-70.6215569544382","","","",""
"PC368","PARADEROS TRANSANTIAGO","PC368 - Parada 5 / (M) Pedro   De Valdivia","-33.4263614173279","-70.6152608173515","","","",""
"PC711","PARADEROS TRANSANTIAGO","PC711 - Carlos Antúnez Esq. / Alfredo Barros E.","-33.4275508756189","-70.6138610005229","","","",""
"PC712","PARADEROS TRANSANTIAGO","PC712 - Carlos Antúnez Esq. / Av. Pedro De Valdivia","-33.4289229984845","-70.6108209774111","","","",""
"PC713","PARADEROS TRANSANTIAGO","PC713 - Carlos Antúnez Esq. / Av. Ricardo Lyon","-33.428099007023","-70.6077310007973","","","",""
"PC714","PARADEROS TRANSANTIAGO","PC714 - Carlos Antúnez Esq. / Suecia","-33.4276610317739","-70.6057599661052","","","",""
"PC715","PARADEROS TRANSANTIAGO","PC715 - Carlos Antúnez Esq. / Avenida Los Leones","-33.4272340530788","-70.6037660289582","","","",""
"PC716","PARADEROS TRANSANTIAGO","PC716 - Carlos Antúnez Esq. / L. Thayer Ojeda","-33.4264291014709","-70.6000959588779","","","",""
"PC717","PARADEROS TRANSANTIAGO","PC717 - Carlos Antúnez Esq. / Avenida El Bosque","-33.4257771252165","-70.5972339921078","","","",""
"PC718","PARADEROS TRANSANTIAGO","PC718 - Carlos Antúnez Esq. / Avenida Tobalaba","-33.4248352086273","-70.5936729586669","","","",""
"PC738","PARADEROS TRANSANTIAGO","PC738 - Parada 4 / (M) Tobalaba","-33.4188380158766","-70.6009376809638","","","",""
"PC1220","PARADEROS TRANSANTIAGO","PC1220 - Parada 7 / (M) Tobalaba","-33.4191891606532","-70.6037080918833","","","",""
"PC461","PARADEROS TRANSANTIAGO","PC461 - Rancagua Esq. / Avenida Seminario","-33.4410296311623","-70.6302779771621","","","",""
"PC462","PARADEROS TRANSANTIAGO","PC462 - Rancagua Esq. / Avenida Italia","-33.4404106873097","-70.6273379461766","","","",""
"PC463","PARADEROS TRANSANTIAGO","PC463 - Rancagua Esq. / Avenida Salvador","-33.4398907374771","-70.6248620212915","","","",""
"PC464","PARADEROS TRANSANTIAGO","PC464 - Diagonal Rancagua Esq. / Av. José M. Infante","-33.4393867787144","-70.6216639984078","","","",""
"PC465","PARADEROS TRANSANTIAGO","PC465 - Av. Francisco Bilbao Esq. / Av. J. Miguel Claro","-33.4399022726901","-70.6185337796623","","","",""
"PC466","PARADEROS TRANSANTIAGO","PC466 - Av. Francisco Bilbao Esq. / Av. Antonio Varas","-33.4392057580287","-70.6139962308103","","","",""
"PC467","PARADEROS TRANSANTIAGO","PC467 - Parada  / Parque   Inés De Suarez","-33.4386529599192","-70.611223997236","","","",""
"PC468","PARADEROS TRANSANTIAGO","PC468 - Parada 1 / Plaza   Pedro De Valdivia","-33.4383540593702","-70.6067910288913","","","",""
"PC469","PARADEROS TRANSANTIAGO","PC469 - Av. Francisco Bilbao Esq. / Av. Ricardo Lyon","-33.4377770808021","-70.6040210010998","","","",""
"PC470","PARADEROS TRANSANTIAGO","PC470 - Av. Francisco Bilbao Esq. / Avenida Los Leones","-33.4371060496654","-70.6010222104956","","","",""
"PC471","PARADEROS TRANSANTIAGO","PC471 - Av. Francisco Bilbao Esq. / Doc. Roberto Del Río","-33.4364571244708","-70.5979539529744","","","",""
"PC472","PARADEROS TRANSANTIAGO","PC472 - Av. Francisco Bilbao Esq. / Hernando De Aguirre","-33.436170425231","-70.5956111118543","","","",""
"PC473","PARADEROS TRANSANTIAGO","PC473 - Av. Francisco Bilbao Esq. / Jorge Matte Gormaz","-33.4356599404575","-70.5917529252717","","","",""
"PC474","PARADEROS TRANSANTIAGO","PC474 - Av. Francisco Bilbao Esq. / Amapolas","-33.435167242348","-70.5885869512118","","","",""
"PC475","PARADEROS TRANSANTIAGO","PC475 - Parada 3 / (M) Francisco Bilbao","-33.4320203660345","-70.5849689601017","","","",""
"PC488","PARADEROS TRANSANTIAGO","PC488 - Parada 6 / (M) Francisco Bilbao","-33.4320265403219","-70.5854519060688","","","",""
"PC489","PARADEROS TRANSANTIAGO","PC489 - Av. Francisco Bilbao Esq. / Amapolas","-33.434862322153","-70.5884329573206","","","",""
"PC490","PARADEROS TRANSANTIAGO","PC490 - Av. Francisco Bilbao Esq. / Jorge Matte Gormaz","-33.4354126478605","-70.5914799310414","","","",""
"PC491","PARADEROS TRANSANTIAGO","PC491 - Av. Francisco Bilbao Esq. / Hernando De Aguirre","-33.4358975798505","-70.5951871556369","","","",""
"PC492","PARADEROS TRANSANTIAGO","PC492 - Av. Francisco Bilbao Esq. / Doc. Roberto Del Río","-33.4362281476213","-70.5977582905975","","","",""
"PC493","PARADEROS TRANSANTIAGO","PC493 - Av. Francisco Bilbao Esq. / Avenida Los Leones","-33.4367861436338","-70.6005427258829","","","",""
"PC494","PARADEROS TRANSANTIAGO","PC494 - Av. Francisco Bilbao Esq. / Andacollo","-33.4378394268545","-70.6051533134766","","","",""
"PC495","PARADEROS TRANSANTIAGO","PC495 - Parada 2 / Plaza   Pedro De Valdivia","-33.4383624566451","-70.6079645209516","","","",""
"PC496","PARADEROS TRANSANTIAGO","PC496 - Parada  / Parque   Inés De Suarez","-33.4386598886707","-70.6123200173858","","","",""
"PC497","PARADEROS TRANSANTIAGO","PC497 - Av. Francisco Bilbao Esq. / Av. Manuel Montt","-33.4392249300967","-70.6151749887842","","","",""
"PC498","PARADEROS TRANSANTIAGO","PC498 - Av. Francisco Bilbao Esq. / Av. J. Miguel Claro","-33.4396041224677","-70.6180165413745","","","",""
"PC499","PARADEROS TRANSANTIAGO","PC499 - Av. Francisco Bilbao Esq. / Av. José M. Infante","-33.4401638696246","-70.6209902350847","","","",""
"PC500","PARADEROS TRANSANTIAGO","PC500 - Av. Francisco Bilbao Esq. / Avenida Italia","-33.4411408162813","-70.6248305771919","","","",""
"PC501","PARADEROS TRANSANTIAGO","PC501 - Av. Francisco Bilbao Esq. / Avenida Italia","-33.4416969302317","-70.6261118909959","","","",""
"PC503","PARADEROS TRANSANTIAGO","PC503 - Parada 4 / (M) Parque   Bustamante","-33.4430457062103","-70.6330744866806","","","",""
"PC505","PARADEROS TRANSANTIAGO","PC505 - Parada  / Puente Racalamac","-33.434428566549","-70.6307461971449","","","",""
"PC506","PARADEROS TRANSANTIAGO","PC506 - Parada  / Clínica   Santa María","-33.4334267148691","-70.6285879758171","","","",""
"PC507","PARADEROS TRANSANTIAGO","PC507 - Avenida Santa María Esq. / Del Arzobispo","-33.4317397191717","-70.6266139593529","","","",""
"PC508","PARADEROS TRANSANTIAGO","PC508 - Avenida Santa María Esq. / J. Ewards De Ferrari","-33.4285364504596","-70.6243228735301","","","",""
"PC559","PARADEROS TRANSANTIAGO","PC559 - Seminario Esq. / Rancagua","-33.4413886519301","-70.6297159716574","","","",""
"PC560","PARADEROS TRANSANTIAGO","PC560 - Seminario Esq. / María L. Santander","-33.4394596351877","-70.6301890138356","","","",""
"PC561","PARADEROS TRANSANTIAGO","PC561 - Parada 6 / Museo De   Los Tajamares","-33.4370056380848","-70.6307460107111","","","",""
"PC563","PARADEROS TRANSANTIAGO","PC563 - Parada 5 / (M) Salvador","-33.4348032336565","-70.6261817213807","","","",""
"PC564","PARADEROS TRANSANTIAGO","PC564 - Parada  / Hospital   Del Salvador","-33.4363307055567","-70.6257320993852","","","",""
"PC565","PARADEROS TRANSANTIAGO","PC565 - Avenida Salvador Esq. / Rancagua","-33.4396307726283","-70.6247770361175","","","",""
"PC566","PARADEROS TRANSANTIAGO","PC566 - Avenida Salvador Esq. / Luis Montaner","-33.4421557351748","-70.6240400299538","","","",""
"PC567","PARADEROS TRANSANTIAGO","PC567 - Avenida Salvador Esq. / Santa Isabel","-33.4456551128686","-70.6229871172566","","","",""
"PC568","PARADEROS TRANSANTIAGO","PC568 - Avenida Salvador Esq. / Caupolicán","-33.4478265552751","-70.6223320768357","","","",""
"PC569","PARADEROS TRANSANTIAGO","PC569 - José Manuel Infante Esq. / Av. Eliodoro Yáñez","-33.4331200090308","-70.6235251061371","","","",""
"PC570","PARADEROS TRANSANTIAGO","PC570 - José Manuel Infante Esq. / Los Naranjos","-33.4369245462152","-70.6223015411068","","","",""
"PC571","PARADEROS TRANSANTIAGO","PC571 - José Manuel Infante Esq. / Av. Francisco Bilbao","-33.4400267655773","-70.6213159836837","","","",""
"PC572","PARADEROS TRANSANTIAGO","PC572 - José Manuel Infante Esq. / Clemente Fabres","-33.4421698437204","-70.6205330459506","","","",""
"PC573","PARADEROS TRANSANTIAGO","PC573 - José Manuel Infante Esq. / Santa Isabel","-33.4448498235143","-70.6195810490003","","","",""
"PC574","PARADEROS TRANSANTIAGO","PC574 - José Manuel Infante Esq. / Caupolicán","-33.4470508402778","-70.6188699999232","","","",""
"PC575","PARADEROS TRANSANTIAGO","PC575 - Avenida Salvador Esq. / Santa Isabel","-33.4459341684613","-70.6227509156425","","","",""
"PC576","PARADEROS TRANSANTIAGO","PC576 - Avenida Salvador Esq. / Pedro León Gallo","-33.4429208013863","-70.6236859627869","","","",""
"PC577","PARADEROS TRANSANTIAGO","PC577 - Avenida Salvador Esq. / Rancagua","-33.4399127610204","-70.6245650057894","","","",""
"PC578","PARADEROS TRANSANTIAGO","PC578 - Parada  / Hospital   Del Salvador","-33.4368437488857","-70.6254510301678","","","",""
"PC579","PARADEROS TRANSANTIAGO","PC579 - Parada 6 / (M) Salvador","-33.4339840036881","-70.6262715243655","","","",""
"PC580","PARADEROS TRANSANTIAGO","PC580 - Seminario Esq. / Santa Isabel","-33.4470637002072","-70.6284669751924","","","",""
"PC581","PARADEROS TRANSANTIAGO","PC581 - Seminario Esq. / Marín","-33.4447476615009","-70.6289920006566","","","",""
"TOBALABA / APOQUINDO","SEMÁFOROS","","-33.418215","-70.601454","","","",""
"NUEVA PROVIDENCIA / TOBALABA","SEMÁFOROS","","-33.417965","-70.601549","","","",""
"APOQUINDO / ENCOMENDEROS (PEATONAL)","SEMÁFOROS","","-33.417967","-70.601535","","","",""
"VITACURA / TAJAMAR","SEMÁFOROS","","-33.417006","-70.604886","","","",""
"SALVADOR / CAUPOLICAN","SEMÁFOROS","","-33.447943","-70.622241","","","",""
"J.MATTE - EMILIA TELLEZ / ELIECER PARADA","SEMÁFOROS","","-33.439291","-70.587077","","","",""
"CHILE ESPAÑA / ECHEÑIQUE","SEMÁFOROS","","-33.442761","-70.593512","","","",""
"MIGUEL CLARO / PROVIDENCIA","SEMÁFOROS","","-33.429978","-70.622176","","","",""
"MANUEL MONTT / PROVIDENCIA","SEMÁFOROS","","-33.428811","-70.620355","","","",""
"MANUEL MONTT / NUEVA PROVIDENCIA","SEMÁFOROS","","-33.429603","-70.619778","","","",""
"SANTA BEATRIZ / PEREZ VALENZUELA","SEMÁFOROS","","-33.425402","-70.619837","","","",""
"ANTONIO VARAS / PROVIDENCIA","SEMÁFOROS","","-33.427644","-70.617666","","","",""
"NUEVA PROVIDENCIA / GENERAL DEL CANTO","SEMÁFOROS","","-33.428829","-70.618269","","","",""
"CARLOS ANTUNEZ - LA CONCEPCION / PROVIDENCIA","SEMÁFOROS","","-33.425611","-70.614714","","","",""
"MARCHANT PEREIRA / NUEVA PROVIDENCIA","SEMÁFOROS","","-33.425453","-70.613738","","","",""
"SEMINARIO / PROVIDENCIA","SEMÁFOROS","","-33.436193","-70.631003","","","",""
"CONDELL / PROVIDENCIA","SEMÁFOROS","","-33.434991","-70.628463","","","",""
"PROVIDENCIA SUR / CONDELL","SEMÁFOROS","","-33.435174","-70.62842","","","",""
"SALVADOR / PROVIDENCIA","SEMÁFOROS","","-33.433647","-70.626493","","","",""
"ELIODORO YAÑEZ / PROVIDENCIA","SEMÁFOROS","","-33.432408","-70.625154","","","",""
"LAS URBINAS - GUARDIA VIEJA / PROVIDENCIA","SEMÁFOROS","","-33.4228","-70.611462","","","",""
"LAS URBINAS - GUARDIA VIEJA / NUEVA PROVIDENCIA","SEMÁFOROS","","-33.423464","-70.610599","","","",""
"NUEVA PROVIDENCIA / PEDRO DE VALDIVIA","SEMÁFOROS","","-33.422817","-70.611445","","","",""
"PROVIDENCIA / PEDRO DE VALDIVIA","SEMÁFOROS","","-33.423653","-70.612442","","","",""
"RICARDO LYON / PROVIDENCIA","SEMÁFOROS","","-33.421809","-70.609836","","","",""
"RICARDO LYON / NUEVA PROVIDENCIA","SEMÁFOROS","","-33.422697","-70.609492","","","",""
"SUECIA / PROVIDENCIA","SEMÁFOROS","","-33.420746","-70.608096","","","",""
"SUECIA / NUEVA PROVIDENCIA","SEMÁFOROS","","-33.421393","-70.607625","","","",""
"LOS LEONES / PROVIDENCIA","SEMÁFOROS","","-33.419874","-70.60601","","","",""
"PROVIDENCIA / LOS LEONES (PEATONAL)","SEMÁFOROS","","-33.41974","-70.606014","","","",""
"HOLANDA / PROVIDENCIA","SEMÁFOROS","","-33.419265","-70.604208","","","",""
"LUIS THAYER OJEDA / PROVIDENCIA","SEMÁFOROS","","-33.418738","-70.602734","","","",""
"LUIS THAYER OJEDA (PEATONAL) / PROVIDENCIA","SEMÁFOROS","","-33.418741","-70.602731","","","",""
"LUIS THAYER OJEDA / NUEVA PROVIDENCIA","SEMÁFOROS","","-33.417559","-70.604217","","","",""
"TOBALABA / EL BOSQUE","SEMÁFOROS","","-33.420019","-70.599159","","","",""
"TOBALABA / LOTA","SEMÁFOROS","","-33.421574","-70.597077","","","",""
"EL BOSQUE / LOTA","SEMÁFOROS","","-33.421881","-70.598448","","","",""
"VITACURA / NUEVA PROVIDENCIA","SEMÁFOROS","","-33.417756","-70.604954","","","",""
"TAJAMAR P / VITACURA","SEMÁFOROS","","-33.417065","-70.604916","","","",""
"HOLANDA / PIO X","SEMÁFOROS","","-33.420998","-70.603487","","","",""
"LUIS THAYER OJEDA / LOTA","SEMÁFOROS","","-33.42242","-70.601113","","","",""
"HERNANDO DE AGUIRRE / LOTA","SEMÁFOROS","","-33.422216","-70.600089","","","",""
"HOLANDA / LOTA","SEMÁFOROS","","-33.422768","-70.602734","","","",""
"LOS LEONES / LOTA","SEMÁFOROS","","-33.423167","-70.60457","","","",""
"SUECIA / LOTA","SEMÁFOROS","","-33.42365","-70.606766","","","",""
"LOS LEONES / CORONEL","SEMÁFOROS","","-33.422261","-70.604947","","","",""
"LOS LEONES / CORONEL PEATONAL","SEMÁFOROS","","-33.422262","-70.604949","","","",""
"PEDRO DE VALDIVIA / BARROS ERRAZURIZ","SEMÁFOROS","","-33.426767","-70.611132","","","",""
"PUENTE ARZOBISPO / COSTANERA ANDRÉS BELLO","SEMÁFOROS","","-33.43185","-70.625866","","","",""
"CALLE DEL ARZOBISPO / SANTA MARIA","SEMÁFOROS","","-33.431451","-70.626449","","","",""
"SANTA MARIA / CAPELLAN ABARZUA","SEMÁFOROS","","-33.433298","-70.628518","","","",""
"SANTA MARIA / PUENTE RAKAMALAC","SEMÁFOROS","","-33.433748","-70.629435","","","",""
"SALVADOR / ALTURA HOSPITAL SALVAD","SEMÁFOROS","","-33.437151","-70.625427","","","",""
"HUELEN / PROVIDENCIA","SEMÁFOROS","","-33.431036","-70.62358","","","",""
"COSTANERA ANDRES BELLO / HUELEN","SEMÁFOROS","","-33.430229","-70.62449","","","",""
"SALVADOR  / DR. ALESSANDRI","SEMÁFOROS","","-33.435065","-70.625914","","","",""
"SANTA MARIA / PUENTE LOS LEONES","SEMÁFOROS","","-33.41719","-70.609738","","","",""
"SANTA MARIA / LOS LEONES","SEMÁFOROS","","-33.416517","-70.609088","","","",""
"SANTA MARIA / PUENTE SUECIA","SEMÁFOROS","","-33.417793","-70.610324","","","",""
"LA CONCEPCION / SANTA MARIA","SEMÁFOROS","","-33.421983","-70.618609","","","",""
"PEATONAL SHERATON ORIENTE / LOS CONQUISTADORES","SEMÁFOROS","","-33.422376","-70.620056","","","",""
"SHERATON / SANTA MARIA PEATONAL","SEMÁFOROS","","-33.423032","-70.621017","","","",""
"SHERATON / CONQUISTADORES PEATONAL","SEMÁFOROS","","-33.422599","-70.620494","","","",""
"PEDRO DE VALDIVIA / SANTA MARIA","SEMÁFOROS","","-33.42074","-70.614796","","","",""
"PADRE LETELIER / SANTA MARIA","SEMÁFOROS","","-33.418898","-70.611636","","","",""
"SANTA MARIA / EL CERRO PONIENTE","SEMÁFOROS","","-33.416284","-70.608874","","","",""
"SANTA MARIA / PUENTE NUEVA TAJAMAR","SEMÁFOROS","","-33.42454","-70.622895","","","",""
"PEATONAL PONIENTE / EL CERRO","SEMÁFOROS","","-33.42454","-70.622895","","","",""
"CARLOS CASANUEVA / SANTA MARIA","SEMÁFOROS","","-33.421328","-70.616733","","","",""
"EL CERRO / LOS CONQUISTADORES","SEMÁFOROS","","-33.415748","-70.61166","","","",""
"LOS HIDALGOS / LOS CONQUISTADORES","SEMÁFOROS","","-33.413688","-70.60938","","","",""
"PEATONAL EL CERRO / LOS CONQUISTADORES","SEMÁFOROS","","-33.415767","-70.61166","","","",""
"PADRE LETELIER / LOS CONQUISTADORES","SEMÁFOROS","","-33.417349","-70.613464","","","",""
"PEDRO DE VALDIVIA / LOS CONQUISTADORES","SEMÁFOROS","","-33.419206","-70.615574","","","",""
"CARLOS CASANUEVA / LOS CONQUISTADORES","SEMÁFOROS","","-33.420842","-70.617378","","","",""
"LOS PIÑONES / BELLAVISTA","SEMÁFOROS","","-33.428904","-70.625652","","","",""
"CALLE DEL ARZOBISPO / BELLAVISTA","SEMÁFOROS","","-33.430628","-70.627943","","","",""
"MAGALLANES / BELLAVISTA","SEMÁFOROS","","-33.431041","-70.628399","","","",""
"CAPELLAN ABARZUA / BELLAVISTA","SEMÁFOROS","","-33.432425","-70.629737","","","",""
"MALLINKRODT / BELLAVISTA","SEMÁFOROS","","-33.434131","-70.632824","","","",""
"PEDRO DE VALDIVIA / COSTANERA ANDRES BELLO","SEMÁFOROS","","-33.421879","-70.614154","","","",""
"NVA DE LYON (PTE. P. LETELIER) / COSTANERA ANDRES BELLO","SEMÁFOROS","","-33.420255","-70.611206","","","",""
"PUENTE LOS LEONES / COSTANERA ANDRES BELLO","SEMÁFOROS","","-33.418136","-70.60871","","","",""
"SUECIA / COSTANERA ANDRES BELLO","SEMÁFOROS","","-33.418853","-70.609421","","","",""
"LA CONCEPCION / COSTANERA ANDRES BELLO","SEMÁFOROS","","-33.42292","-70.61771","","","",""
"CALDERON / COSTANERA ANDRES BELLO","SEMÁFOROS","","-33.425086","-70.621515","","","",""
"EL BOSQUE / CARMEN SYLVA (PONIENTE)","SEMÁFOROS","","-33.423768","-70.597755","","","",""
"EL BOSQUE / CARMEN SYLVA (ORIENTE)","SEMÁFOROS","","-33.423757","-70.597724","","","",""
"LOS LEONES / CARMEN SYLVA","SEMÁFOROS","","-33.425118","-70.604038","","","",""
"MARCHANT PEREIRA / CARLOS ANTUNEZ","SEMÁFOROS","","-33.429096","-70.612426","","","",""
"PEDRO DE VALDIVIA / CARLOS ANTUNEZ","SEMÁFOROS","","-33.428737","-70.610396","","","",""
"RICARDO LYON / CARLOS ANTUNEZ","SEMÁFOROS","","-33.427986","-70.607504","","","",""
"SUECIA / CARLOS ANTUNEZ","SEMÁFOROS","","-33.427544","-70.605471","","","",""
"LOS LEONES / CARLOS ANTUNEZ","SEMÁFOROS","","-33.427112","-70.603513","","","",""
"HOLANDA / CARLOS ANTUNEZ","SEMÁFOROS","","-33.426692","-70.601604","","","",""
"LUIS THAYER OJEDA / CARLOS ANTUNEZ","SEMÁFOROS","","-33.4263","-70.599889","","","",""
"HERNANDO DE AGUIRRE / CARLOS ANTUNEZ","SEMÁFOROS","","-33.426018","-70.598595","","","",""
"EL BOSQUE / CARLOS ANTUNEZ","SEMÁFOROS","","-33.425643","-70.59705","","","",""
"TOBALABA / CARLOS ANTUNEZ","SEMÁFOROS","","-33.424612","-70.593304","","","",""
"TOBALABA / ELIODORO YAÑEZ","SEMÁFOROS","","-33.426269","-70.591136","","","",""
"AMAPOLAS / ELIODORO YAÑEZ","SEMÁFOROS","","-33.427191","-70.592243","","","",""
"JUAN DE DIOS VIAL / ELIODORO YAÑEZ","SEMÁFOROS","","-33.428279","-70.59491","","","",""
"ELIODORO YAÑEZ / CARLOS SILVA VILDOSOLA","SEMÁFOROS","","-33.4280117","-70.5939087","","","",""
"EL BOSQUE / ELIODORO YAÑEZ","SEMÁFOROS","","-33.428516","-70.595978","","","",""
"HERNANDO DE AGUIRRE / ELIODORO YAÑEZ","SEMÁFOROS","","-33.428863","-70.597664","","","",""
"LUIS THAYER OJEDA / ELIODORO YAÑEZ","SEMÁFOROS","","-33.429162","-70.598967","","","",""
"HOLANDA / ELIODORO YAÑEZ","SEMÁFOROS","","-33.429547","-70.600788","","","",""
"LOS LEONES / ELIODORO YAÑEZ","SEMÁFOROS","","-33.429977","-70.602759","","","",""
"SUECIA / ELIODORO YAÑEZ","SEMÁFOROS","","-33.43038","-70.604575","","","",""
"RICARDO LYON / ELIODORO YAÑEZ","SEMÁFOROS","","-33.430788","-70.60641","","","",""
"PEDRO DE VALDIVIA / ELIODORO YAÑEZ","SEMÁFOROS","","-33.431428","-70.60945","","","",""
"MARCHANT PEREIRA / ELIODORO YAÑEZ","SEMÁFOROS","","-33.431919","-70.611585","","","",""
"ANTONIO VARAS / ELIODORO YAÑEZ","SEMÁFOROS","","-33.432721","-70.615846","","","",""
"MANUEL MONTT / ELIODORO YAÑEZ","SEMÁFOROS","","-33.433261","-70.617397","","","",""
"MIGUEL CLARO / ELIODORO YAÑEZ","SEMÁFOROS","","-33.433726","-70.619683","","","",""
"ROMAN DIAZ / ELIODORO YAÑEZ","SEMÁFOROS","","-33.433757","-70.620858","","","",""
"JOSE MANUEL INFANTE / ELIODORO YAÑEZ","SEMÁFOROS","","-33.433363","-70.623381","","","",""
"MANUEL MONTT / VALENZUELA CASTILLO","SEMÁFOROS","","-33.434824","-70.616619","","","",""
"ANTONIO VARAS / VALENZUELA CASTILLO","SEMÁFOROS","","-33.434478","-70.615254","","","",""
"MIGUEL CLARO / VALENZUELA CASTILLO","SEMÁFOROS","","-33.435462","-70.619285","","","",""
"PEDRO DE VALDIVIA / MAR DEL PLATA","SEMÁFOROS","","-33.433119","-70.608965","","","",""
"RICARDO LYON / MAR DEL PLATA","SEMÁFOROS","","-33.432341","-70.605817","","","",""
"TOBALABA / EL VERGEL","SEMÁFOROS","","-33.428048","-70.588926","","","",""
"CONDELL / RANCAGUA","SEMÁFOROS","","-33.440378","-70.627508","","","",""
"SALVADOR / RANCAGUA","SEMÁFOROS","","-33.439786","-70.624653","","","",""
"JOSE MANUEL INFANTE / RANCAGUA","SEMÁFOROS","","-33.439421","-70.621428","","","",""
"MIGUEL CLARO / ALFEREZ REAL","SEMÁFOROS","","-33.438737","-70.618549","","","",""
"MANUEL MONTT / ALFEREZ REAL","SEMÁFOROS","","-33.43822","-70.615795","","","",""
"ANTONIO VARAS / ALFEREZ REAL - POCURO","SEMÁFOROS","","-33.437887","-70.614114","","","",""
"POCURO / ALTURA 1920","SEMÁFOROS","","-33.436569","-70.609727","","","",""
"REGIMIENTO CAZADORES / BILBAO NORTE","SEMÁFOROS","","-33.438425","-70.611118","","","",""
"REGIMIENTO CAZADORES / BILBAO SUR","SEMÁFOROS","","-33.43849","-70.610542","","","",""
"PEDRO DE VALDIVIA / POCURO","SEMÁFOROS","","-33.436222","-70.608037","","","",""
"RICARDO LYON / POCURO","SEMÁFOROS","","-33.435349","-70.60472","","","",""
"SUECIA / POCURO","SEMÁFOROS","","-33.434951","-70.603109","","","",""
"LOS LEONES / POCURO","SEMÁFOROS","","-33.434566","-70.601505","","","",""
"HOLANDA / POCURO","SEMÁFOROS","","-33.434024","-70.599513","","","",""
"LUIS THAYER OJEDA / POCURO","SEMÁFOROS","","-33.433526","-70.597573","","","",""
"HERNANDO DE AGUIRRE / POCURO","SEMÁFOROS","","-33.433197","-70.596284","","","",""
"POCURO / PRESIDENTE ALFARO","SEMÁFOROS","","-33.432827","-70.595113","","","",""
"POCURO / AUGUSTO OVALLE","SEMÁFOROS","","-33.432479","-70.593781","","","",""
"AMAPOLAS / POCURO","SEMÁFOROS","","-33.431624","-70.590145","","","",""
"TOBALABA / POCURO","SEMÁFOROS","","-33.430064","-70.586608","","","",""
"TOBALABA / BILBAO","SEMÁFOROS","","-33.431779","-70.584765","","","",""
"JORGE MATTE / DIEGO DE ALMAGRO","SEMÁFOROS","","-33.437292","-70.590527","","","",""
"AMAPOLAS / BILBAO","SEMÁFOROS","","-33.435105","-70.588678","","","",""
"AMAPOLAS / DIEGO DE ALMAGRO","SEMÁFOROS","","-33.435513","-70.5882","","","",""
"JORGE MATTE / BILBAO","SEMÁFOROS","","-33.435534","-70.59165","","","",""
"EL BOSQUE / BILBAO","SEMÁFOROS","","-33.435786","-70.593192","","","",""
"HERNANDO DE AGUIRRE / BILBAO","SEMÁFOROS","","-33.436025","-70.595352","","","",""
"LUIS THAYER OJEDA / BILBAO","SEMÁFOROS","","-33.436209","-70.596718","","","",""
"HOLANDA / BILBAO","SEMÁFOROS","","-33.436491","-70.598791","","","",""
"LOS LEONES / BILBAO","SEMÁFOROS","","-33.436955","-70.600862","","","",""
"SUECIA / BILBAO","SEMÁFOROS","","-33.437302","-70.602315","","","",""
"RICARDO LYON / BILBAO","SEMÁFOROS","","-33.437667","-70.603836","","","",""
"PEDRO DE VALDIVIA / BILBAO","SEMÁFOROS","","-33.438388","-70.607393","","","",""
"FRANCISCO BILBAO / ANDACOLLO","SEMÁFOROS","","-33.438071","-70.605967","","","",""
"ANTONIO VARAS / BILBAO","SEMÁFOROS","","-33.439048","-70.613758","","","",""
"MANUEL MONTT / BILBAO","SEMÁFOROS","","-33.439403","-70.615522","","","",""
"MANUEL MONTT / CARLOS WILSON","SEMÁFOROS","","-33.442645","-70.614809","","","",""
"MIGUEL CLARO / BILBAO","SEMÁFOROS","","-33.439768","-70.618306","","","",""
"ROMAN DIAZ / BILBAO","SEMÁFOROS","","-33.439989","-70.619746","","","",""
"JOSE MANUEL INFANTE / BILBAO","SEMÁFOROS","","-33.440245","-70.621159","","","",""
"JULIO PRADO / BILBAO","SEMÁFOROS","","-33.440577","-70.622617","","","",""
"SALVADOR / BILBAO","SEMÁFOROS","","-33.441142","-70.624263","","","",""
"ITALIA / BILBAO","SEMÁFOROS","","-33.441803","-70.626401","","","",""
"CONDELL / BILBAO","SEMÁFOROS","","-33.442","-70.627263","","","",""
"MANUEL MONTT / PUYEHUE","SEMÁFOROS","","-33.440592","-70.615268","","","",""
"PEDRO DE VALDIVIA / ENRIQUE DEL PIANO","SEMÁFOROS","","-33.439402","-70.60716","","","",""
"PEDRO DE VALDIVIA / BUSTOS","SEMÁFOROS","","-33.440312","-70.6070277","","","",""
"RICARDO LYON / BUSTOS","SEMÁFOROS","","-33.4397001","-70.6031224","","","",""
"LOS LEONES / BUSTOS","SEMÁFOROS","","-33.439253","-70.600227","","","",""
"TOBALABA / ELIECER PARADA","SEMÁFOROS","","-33.433964","-70.582369","","","",""
"SALVADOR / LOS JESUITAS","SEMÁFOROS","","-33.444628","-70.62322","","","",""
"SALVADOR / MARIN","SEMÁFOROS","","-33.44355","-70.623569","","","",""
"RICARDO LYON / D.DE ALMAGRO","SEMÁFOROS","","-33.443141","-70.603141","","","",""
"SUECIA / D.DE ALMAGRO","SEMÁFOROS","","-33.442784","-70.60137","","","",""
"LOS LEONES / DIEGO DE ALMAGRO","SEMÁFOROS","","-33.441553","-70.599611","","","",""
"HOLANDA / D.DE ALMAGRO","SEMÁFOROS","","-33.441302","-70.597783","","","",""
"L. T. OJEDA - RENATO ZANELLI / DIEGO DE ALMAGRO","SEMÁFOROS","","-33.440297","-70.594438","","","",""
"HERNANDO DE AGUIRRE / D.DE ALMAGRO","SEMÁFOROS","","-33.439346","-70.593201","","","",""
"DIEGO DE ALMAGRO / E.PARADA","SEMÁFOROS","","-33.435658","-70.583842","","","",""
"AMAPOLAS / E.PARADA","SEMÁFOROS","","-33.437353","-70.585361","","","",""
"HERNANDO DE AGUIRRE / E.PARADA","SEMÁFOROS","","-33.441613","-70.588597","","","",""
"ECHEÑIQUE / E.PARADA","SEMÁFOROS","","-33.444252","-70.59029","","","",""
"HOLANDA / EL AGUILUCHO","SEMÁFOROS","","-33.443017","-70.597535","","","",""
"LOS LEONES / EL AGUILUCHO","SEMÁFOROS","","-33.443222","-70.599374","","","",""
"SALVADOR / SANTA ISABEL","SEMÁFOROS","","-33.445732","-70.622902","","","",""
"JOSE MANUEL INFANTE / SANTA ISABEL","SEMÁFOROS","","-33.444998","-70.619466","","","",""
"MIGUEL CLARO / SANTA ISABEL","SEMÁFOROS","","-33.445624","-70.616978","","","",""
"MANUEL MONTT / SANTA ISABEL","SEMÁFOROS","","-33.446815","-70.613881","","","",""
"ANTONIO VARAS / DIAGONAL ORIENTE","SEMÁFOROS","","-33.446433","-70.611303","","","",""
"PEDRO DE VALDIVIA / DIAGONAL ORIENTE","SEMÁFOROS","","-33.445409","-70.606152","","","",""
"VILLASECA / P.L.FERRER","SEMÁFOROS","","-33.445162","-70.604363","","","",""
"DIAGONAL ORIENTE / RICARDO LYON","SEMÁFOROS","","-33.445037","-70.602884","","","",""
"SUECIA / P.L.FERRER - DIAGONAL ORIENTE","SEMÁFOROS","","-33.444834","-70.601091","","","",""
"LOS LEONES / P.L.FERRER","SEMÁFOROS","","-33.44439","-70.599205","","","",""
"HOLANDA / JAIME GUZMAN","SEMÁFOROS","","-33.445222","-70.597236","","","",""
"CHILE ESPAÑA / JAIME GUZMAN","SEMÁFOROS","","-33.445972","-70.596098","","","",""
"REGINA PACIS / JAIME GUZMAN","SEMÁFOROS","","-33.446859","-70.594453","","","",""
"E.PARADA / DIAGONAL ORIENTE","SEMÁFOROS","","-33.447746","-70.592796","","","",""
"RAMON CARNICER / RANCAGUA","SEMÁFOROS","","-33.441404","-70.632433","","","",""
"BUSTAMANTE / RANCAGUA","SEMÁFOROS","","-33.441166","-70.631343","","","",""
"SEMINARIO / RANCAGUA","SEMÁFOROS","","-33.440855","-70.62992","","","",""
"SEMINARIO / BILBAO","SEMÁFOROS","","-33.442499","-70.629561","","","",""
"BUSTAMANTE / BILBAO","SEMÁFOROS","","-33.44272","-70.63098","","","",""
"RAMON CARNICER / BILBAO-CURICO","SEMÁFOROS","","-33.442771","-70.6321","","","",""
"RAMON CARNICER / PEATONAL FRENTE ACHS","SEMÁFOROS","","-33.442832","-70.632082","","","",""
"CONDELL / MARIN","SEMÁFOROS","","-33.44405","-70.626676","","","",""
"SEMINARIO / MARIN","SEMÁFOROS","","-33.444566","-70.629114","","","",""
"BUSTAMANTE (ORIENTE) / MARIN","SEMÁFOROS","","-33.445058","-70.630982","","","",""
"BUSTAMANTE / SANTA ISABEL","SEMÁFOROS","","-33.447106","-70.630409","","","",""
"SEMINARIO / SANTA ISABEL","SEMÁFOROS","","-33.446878","-70.628556","","","",""
"ITALIA / SANTA ISABEL","SEMÁFOROS","","-33.44619","-70.625122","","","",""
"PIO NONO / ANTONIA LOPEZ DE BELLO","SEMÁFOROS","","-33.432146","-70.635993","","","",""
"PIO NONO / DARDIGNAC","SEMÁFOROS","","-33.433357","-70.635844","","","",""
"PIO NONO / BELLAVISTA","SEMÁFOROS","","-33.434808","-70.635515","","","",""
"PIO NONO / SANTA MARIA","SEMÁFOROS","","-33.435684","-70.635369","","","",""
"PIO NONO / JOSE MARIA CARO","SEMÁFOROS","","-33.436399","-70.635372","","","",""
"VICUÑA MACKENNA / ALAMEDA BERNARDO O'HIGGINS","SEMÁFOROS","","-33.437175","-70.635194","","","",""
"PIO NONO / MERCED (PEATONAL)","SEMÁFOROS","","-33.436803","-70.635304","","","",""
"VICUÑA MACKENNA / MARCOLETA","SEMÁFOROS","","-33.43836","-70.634914","","","",""
"VICUÑA MACKENNA / RANCAGUA-DIAG.PARAGUAY","SEMÁFOROS","","-33.441854","-70.633882","","","",""
"VICUÑA MACKENNA / CURICO","SEMÁFOROS","","-33.443285","-70.633465","","","",""
"VICUÑA MACKENNA / MARIN","SEMÁFOROS","","-33.445397","-70.632844","","","",""
"VICUÑA MACKENNA / SANTA ISABEL","SEMÁFOROS","","-33.447386","-70.632254","","","",""
"VICUÑA MACKENNA (ORIENTE) / PASSY","SEMÁFOROS","","-33.448853","-70.631819","","","",""
"VICUÑA MACKENNA (PONIENTE) / PASSY","SEMÁFOROS","","-33.448853","-70.631824","","","",""
"VASCONIA / ANTONIO VARAS","SEMÁFOROS","","-33.4422746","-70.612607","","","",""
"RICARDO LYON / COYANCURA","SEMÁFOROS","","-33.4241169","-70.6089592","","","",""
"LOS LEONES / EL VERGEL","SEMÁFOROS","","-33.432462","-70.602082","","","",""
"CONDELL / SANTA ISABEL","SEMÁFOROS","","-33.446357","-70.6260181","","","",""
"Tobalaba - Apoquindo","CÁMARAS DE TRÁNSITO","","-33.418207","-70.60133","Digital","","",""
"Costanera - Tajamar","CÁMARAS DE TRÁNSITO","","-33.4166526","-70.6072686","Analogo","","",""
"Providencia - P. Valdivia","CÁMARAS DE TRÁNSITO","","-33.4235317","-70.6124785","Analogo","","",""
"R. Lyon - Nueva Providencia","CÁMARAS DE TRÁNSITO","","-33.4225973728797","-70.609454942059983","Analogo","","",""
"Providencia - E. YaÃ±ez","CÁMARAS DE TRÁNSITO","","-33.432345453393836","-70.625253914376799","Analogo","","",""
"Costanera - Nueva de Lyon","CÁMARAS DE TRÁNSITO","","-33.420323108567722","-70.611169144947951","Analogo","","",""
"Santa Maria - El Gobernador","CÁMARAS DE TRÁNSITO","","-33.417844614625025","-70.610286830552241","Analogo","","",""
"Costanera - La Concepcion","CÁMARAS DE TRÁNSITO","","-33.422916466470234","-70.617809633290676","Analogo","","",""
"Tobalaba - El Bosque","CÁMARAS DE TRÁNSITO","","-33.420118867877953","-70.599136265575908","Analogo","","",""
"Vitacura - Nueva Tajamar","CÁMARAS DE TRÁNSITO","","-33.417531","-70.6049922","Analogo","","",""
"Nueva Providencia - Antonio Varas","CÁMARAS DE TRÁNSITO","","-33.428122370528797","-70.617439566577403","Analogo","","",""
"Providencia - Manuel Montt","CÁMARAS DE TRÁNSITO","","-33.428806304576327","-70.620378714575111","Analogo","","",""
"Pocuro -Pedro de Valdivia","CÁMARAS DE TRÁNSITO","","-33.4362225","-70.6082618","Digital","","",""
"Pedro de Valdivia - Bilbao","CÁMARAS DE TRÁNSITO","","-33.438416","-70.6073821","Digital","","",""
"E. YaÃ±ez - Los Leones","CÁMARAS DE TRÁNSITO","","-33.429968880769486","-70.602751081978226","Digital","","",""
"Manuel Montt - Eliodoro YaÃ±ez","CÁMARAS DE TRÁNSITO","","-33.433267871879863","-70.617413520812988","Digital","","",""
"El Cerro - Los Conquistadores","CÁMARAS DE TRÁNSITO","","-33.4157579","-70.6116173","Digital","","",""
"Ramon Carnicer - Francisco Bilbao","CÁMARAS DE TRÁNSITO","","-33.4427666","-70.6319785","Digital","","",""
"Tobalaba - F. Bilbao","CÁMARAS DE TRÁNSITO","","-33.431849991903619","-70.584701544714335","Digital","","",""
"Tobalaba - E. Parada","CÁMARAS DE TRÁNSITO","","-33.433990938475411","-70.582371644565967","Digital","","",""
"Providencia - Salvador","CÁMARAS DE TRÁNSITO","","-33.4335705","-70.6265637","Digital","","",""
"Santa Maria - Pedro Valdivia","CÁMARAS DE TRÁNSITO","","-33.4207176","-70.6147915","Digital","","",""
"Providencia - Los Leones","CÁMARAS DE TRÁNSITO","","-33.419943","-70.6059558","Digital","","",""
"Providencia - Suecia","CÁMARAS DE TRÁNSITO","","-33.421084","-70.6078472","Digital","","",""
"Alameda - V. Mackenna","CÁMARAS DE TRÁNSITO","","-33.4370759","-70.6354228","Analogo","","",""
"Bellavista - Arzobispo","CÁMARAS DE TRÁNSITO","","-33.4306369","-70.6279239","Digital","","",""
"Pio Nono - Santa Maria","CÁMARAS DE TRÁNSITO","","-33.4356937","-70.6353647","Digital","","",""
"V. Mackenna - D. Paraguay","CÁMARAS DE TRÁNSITO","","-33.441923","-70.6338641","Analogo","","",""
"V. Mackenna - Santa Isabel","CÁMARAS DE TRÁNSITO","","-33.447388596248636","-70.632236442434873","Digital","","",""
"COPEC ANDRÉS BELLO","ESTACIONES DE SERVICIO","ANDRÉS BELLO 1051","-33.4296688","-70.6240904","","","",""
"COPEC ELIODORO YAÑEZ","ESTACIONES DE SERVICIO","ELIODORO YAÑEZ  1960","-33.4316419","-70.610328","","","",""
"COPEC BILBAO  2682","ESTACIONES DE SERVICIO","FRANCISCO BILBAO  2682","-33.4360167","-70.5955846","","","",""
"COPEC BILBAO  960","ESTACIONES DE SERVICIO","FRANCISCO BILBAO  960","-33.4401023","-70.62033219999999","","","",""
"COPEC LOS LEONES","ESTACIONES DE SERVICIO","LOS LEONES  2347","-33.4404278","-70.6000349","","","",""
"COPEC LOTA","ESTACIONES DE SERVICIO","LOTA  2864","-33.4216175","-70.5972063","","","",""
"COPEC MANUEL MONTT","ESTACIONES DE SERVICIO","MANUEL MONTT  1118","-33.4382499","-70.6158164","","","",""
"COPEC PEDRO DE VALDIVIA","ESTACIONES DE SERVICIO","PEDRO DE VALDIVIA  2142","-33.4421251","-70.60665229999999","","","",""
"COPEC PROVIDENCIA","ESTACIONES DE SERVICIO","PROVIDENCIA  1072","-33.4302154","-70.6225888","","","",""
"COPEC SALVADOR","ESTACIONES DE SERVICIO","SALVADOR  1368","-33.4457958","-70.6228417","","","",""
"COPEC SANTA MARIA","ESTACIONES DE SERVICIO","SANTA MARIA  0716","-33.4312894","-70.6262737","","","",""
"PETROBRAS ELIODORO YAÑEZ","ESTACIONES DE SERVICIO","ELIODORO YAÑEZ  921","-33.4334103","-70.6231143","","","",""
"PETROBRAS FRANCISCO BILBAO","ESTACIONES DE SERVICIO","FRANCISCO BILBAO  1482","-33.4390043","-70.6137528","","","",""
"PETROBRAS SANTA MARIA","ESTACIONES DE SERVICIO","SANTA MARIA  2890","-33.4121785","-70.607238","","","",""
"SESA","ESTACIONES DE SERVICIO","TOBALABA  1895","-33.4300732","-70.586631","","","",""
"SHELL VICUÑA MACKENNA","ESTACIONES DE SERVICIO","BENJAMIN VICUÑA MACKENNA  102","-33.4421457","-70.63405299999999","","","",""
"SHELL CARLOS ANTUNEZ","ESTACIONES DE SERVICIO","CARLOS ANTUNEZ  2490","-33.4267441","-70.60184749999999","","","",""
"SHELL CONSEJO DE INDIAS","ESTACIONES DE SERVICIO","CONSEJO DE INDIAS  1449","-33.4411363","-70.59593679999999","","","",""
"SHELL BILBAO  3785","ESTACIONES DE SERVICIO","FRANCISCO BILBAO  3785","-33.4319044","-70.5848105","","","",""
"SHELL BILBAO  548","ESTACIONES DE SERVICIO","FRANCISCO BILBAO  548","-33.4412971","-70.6248501","","","",""
"SHELL SANTA MARIA","ESTACIONES DE SERVICIO","SANTA MARIA  0888","-33.4288366","-70.6245526","","","",""
"TERPEL ELIODORO YAÑEZ","ESTACIONES DE SERVICIO","ELIODORO YAÑEZ  2904","-33.4277034","-70.59309639999999","","","",""
"TERPEL HOLANDA","ESTACIONES DE SERVICIO","HOLANDA  2808","-33.4443357","-70.5974518","","","",""
"Andrés Bello / Gral. Holley","ESTACIONES BICICLETAS PÚBLICAS","","-33,41936","-70.60966","","","","23"
"Avenida Italia / Marín","ESTACIONES BICICLETAS PÚBLICAS","","-33.44387","-70.62568","","","","11"
"Avenida Suecia / El Vergel","ESTACIONES BICICLETAS PÚBLICAS","","-33.4328","-70.60368","","","","21"
"Costanera Center 1","ESTACIONES BICICLETAS PÚBLICAS","","-33.41685","-70.60584","","","","31"
"Costanera Center 2","ESTACIONES BICICLETAS PÚBLICAS","","-33.41643","-70.60602","","","","31"
"Costanera Center 3","ESTACIONES BICICLETAS PÚBLICAS","","-33.41704","-70.60502","","","","15"
"Duoc (Antonio Varas)","ESTACIONES BICICLETAS PÚBLICAS","","-33.43339","-70.61576","","","","11"
"El Aguilucho","ESTACIONES BICICLETAS PÚBLICAS","","-33.44285","-70.59844","","","","23"
"Metro Colón","ESTACIONES BICICLETAS PÚBLICAS","","-33.42654","-70.59093","","","","21"
"Metro Francisco Bilbao","ESTACIONES BICICLETAS PÚBLICAS","","-33.43071","-70.58617","","","","27"
"Metro Manuel Montt","ESTACIONES BICICLETAS PÚBLICAS","","-33.42866","-70.61969","","","","23"
"Metro Manuel Montt 2","ESTACIONES BICICLETAS PÚBLICAS","","-33.42819","-70.61927","","","","31"
"Metro Parque Bustamante","ESTACIONES BICICLETAS PÚBLICAS","","-33.44297","-70.63185","","","","23"
"Metro Pedro de Valdivia","ESTACIONES BICICLETAS PÚBLICAS","","-33.42549","-70.61363","","","","23"
"Metro Pedro de Valdivia 2","ESTACIONES BICICLETAS PÚBLICAS","","-33.42528","-70.6137","","","","31"
"Metro Plaza Italia","ESTACIONES BICICLETAS PÚBLICAS","","-33.43762","-70.63313","","","","31"
"Metro Salvador","ESTACIONES BICICLETAS PÚBLICAS","","-33.43245","-70.62555","","","","23"
"Metro Salvador 2","ESTACIONES BICICLETAS PÚBLICAS","","-33.43224","-70.62589","","","","23"
"Metro Santa Isabel","ESTACIONES BICICLETAS PÚBLICAS","","-33.447","-70.63093","","","","11"
"Metro Santa Isabel 2","ESTACIONES BICICLETAS PÚBLICAS","","-33.44729","-70.63098","","","","31"
"Metro Tobalaba","ESTACIONES BICICLETAS PÚBLICAS","","-33.41876","-70.60126","","","","31"
"Municipalidad Providencia","ESTACIONES BICICLETAS PÚBLICAS","","-33.43276","-70.61131","","","","21"
"Nueva Los Leones","ESTACIONES BICICLETAS PÚBLICAS","","-33.4197","-70.60611","","","","31"
"Patio Bellavista","ESTACIONES BICICLETAS PÚBLICAS","","-33.43419","-70.63442","","","","28"
"Plaza Loreto Cousiño","ESTACIONES BICICLETAS PÚBLICAS","","-33.42654","-70.59548","","","","13"
"Plaza Pedro de Valdivia","ESTACIONES BICICLETAS PÚBLICAS","","-33.43936","-70.60787","","","","31"
"Plaza Rio De Janeiro","ESTACIONES BICICLETAS PÚBLICAS","","-33.43244","-70.594","","","","11"
"Ricardo Lyon / Calle Bustos","ESTACIONES BICICLETAS PÚBLICAS","","-33.43962","-70.60294","","","","21"
"Ricardo Lyon / Ladislao Errazuriz","ESTACIONES BICICLETAS PÚBLICAS","","-33.43167","-70.6064","","","","21"
"Ricardo Lyon / Lota","ESTACIONES BICICLETAS PÚBLICAS","","-33.42388","-70.60887","","","","31"
"Ricardo Lyon / Pocuro","ESTACIONES BICICLETAS PÚBLICAS","","-33.43509","-70.60449","","","","27"
"Santa Isabel /Ana Luisa Prats","ESTACIONES BICICLETAS PÚBLICAS","","-33.44534","-70.61773","","","","17"
"Universidad Católica Campus Lo Contador","ESTACIONES BICICLETAS PÚBLICAS","","-33.42031","-70.61827","","","","27"
"Barrio Bellavista 1","BICICLETEROS","Constitución 75","-33.4335399","-70.63462679999999","EN CALZADA","","","10"
"Barrio Bellavista 2","BICICLETEROS","Constitución 85","-33.4333975","-70.6346664","EN CALZADA","","","10"
"Barrio Bustamante 1","BICICLETEROS","Ramón Carnicer 73","-33.4405128","-70.63263409999999","EN CALZADA","","","10"
"Barrio Bustamante 2","BICICLETEROS","Bustamante 48","-33.4387013","-70.63224989999999","EN CALZADA","","","10"
"Barrio Bustamante 3","BICICLETEROS","Bustamante 106","-33.4413143","-70.6312641","EN CALZADA","","","10"
"Barrio Bustamante 4","BICICLETEROS","Salida Oriente Metro Santa Isabel","-33.4469543","-70.63025709999999","EN CALZADA","","","10"
"Barrio Marcel Duhaut","BICICLETEROS","Las Dalias 2888","-33.4293766","-70.5928052","EN CALZADA","","","10"
"Barrio Santa Isabel 1","BICICLETEROS","Italia 830","-33.4425225","-70.626195","EN CALZADA","","","10"
"Barrio Santa Isabel 2","BICICLETEROS","Italia 1235","-33.4460172","-70.62522509999999","EN CALZADA","","","10"
"Barrio Santa Isabel 3","BICICLETEROS","Italia 1290","-33.4463737","-70.62502480000001","EN CALZADA","","","10"
"Barrio Santa Isabel 4","BICICLETEROS","Condell 1461","-33.448168","-70.6254661","EN CALZADA","","","10"
"Biblioteca Municipal","BICICLETEROS","Antonio Bellet 7","-33.426957","-70.61658550000001","EN CALZADA","","","10"
"Casi frente a Correos de Chile","BICICLETEROS","Nueva Providencia 2090","-33.4236688","-70.61091089999999","EJE PROVIDENCIA","","","10"
"Centro Deportivo El Aguilucho","BICICLETEROS","Arz. Fuenzalida Martinez 2615","-33.4428853","-70.5985179","SEDES MUNICIPALES","","","16"
"Centro Deportivo Providencia (Depto. Deportes y Recreación Centro Deportivo)","BICICLETEROS","Santa Isabel 830","-33.4450373","-70.6204149","SEDES MUNICIPALES","","","38"
"Cercano pasaje Felix Cabrera","BICICLETEROS","Providencia 1963","-33.4241069","-70.6130338","EJE PROVIDENCIA","","","10"
"Cercano Paseo Orrego Luco 1","BICICLETEROS","Providencia 2047","-33.4231544","-70.6117713","EJE PROVIDENCIA","","","20"
"Cercano Paseo Orrego Luco 2","BICICLETEROS","Providencia 2051","-33.4230771","-70.6116645","EJE PROVIDENCIA","","","20"
"Club Providencia","BICICLETEROS","Pocuro 2878","-33.4318161","-70.5920845","SEDES MUNICIPALES","","","14"
"Colegio Mercedes Marin del Solar","BICICLETEROS","Los Leones 262","-33.4223013","-70.60476079999999","SEDES MUNICIPALES","","","16"
"El Bosque","BICICLETEROS","El Bosque 1811","-33.4359784","-70.59312729999999","EN CALZADA","","","10"
"Espacio Musical","BICICLETEROS","Padre Mariano 156","-33.4253345","-70.6168907","SEDES MUNICIPALES","","","24"
"Esquina Cirujano Guzmán","BICICLETEROS","Providencia 1476","-33.4276449","-70.6176328","EJE PROVIDENCIA","","","10"
"Esquina General del Canto frente a Itau","BICICLETEROS","Nueva Providencia 1395","-33.4289418","-70.61834160000001","EJE PROVIDENCIA","","","10"
"Esquina La Concepción","BICICLETEROS","Providencia 1760","-33.4259312","-70.61507809999999","EJE PROVIDENCIA","","","10"
"Esquina M.Barros Borgoño","BICICLETEROS","Nueva Providencia 1368","-33.4291827","-70.61872","EJE PROVIDENCIA","","","10"
"Esquina M.Montt frente Bco. Santarder","BICICLETEROS","Manuel Montt 65","-33.42956910000001","-70.61992840000001","EJE PROVIDENCIA","","","10"
"Esquina Padre Mariano","BICICLETEROS","Padre Mariano 10","-33.426405","-70.6157363","EJE PROVIDENCIA","","","10"
"Esquina Pedro de Valdivia","BICICLETEROS","Providencia 1998","-33.4235939","-70.6125531","EJE PROVIDENCIA","","","10"
"Esquina Santa Beatriz","BICICLETEROS","Santa Beatriz 22","-33.427445","-70.61733080000001","EJE PROVIDENCIA","","","14"
"Frente a Banco de Chile","BICICLETEROS","Nueva Los Leones 7","-33.4195171","-70.6060729","EJE PROVIDENCIA","","","10"
"Frente a Banco Edwards","BICICLETEROS","Nueva Providencia Frente Bco Edwards","-33.4212868","-70.6075876","EJE PROVIDENCIA","","","10"
"Frente a Banco Santander","BICICLETEROS","Providencia 2259","-33.4211852","-70.608689","EJE PROVIDENCIA","","","10"
"Frente a Biblioteca Municipal","BICICLETEROS","Providencia 1590","-33.4270962","-70.6166484","EJE PROVIDENCIA","","","30"
"Frente a Caracol","BICICLETEROS","Nueva Los Leones 30","-33.4195013","-70.60633860000002","EJE PROVIDENCIA","","","10"
"Frente a Castaño","BICICLETEROS","Providencia 1371","-33.4283776","-70.61914040000001","EJE PROVIDENCIA","","","10"
"Frente a CITi","BICICLETEROS","Providencia Frente a CITi","-33.4203867","-70.60680979999999","EJE PROVIDENCIA","","","14"
"Frente a Cruz Verde","BICICLETEROS","Providencia 2210","-33.4216364","-70.6096556","EJE PROVIDENCIA","","","10"
"Frente a Galería La Pergola","BICICLETEROS","Providencia 2572","-33.4188671","-70.6031143","EJE PROVIDENCIA","","","10"
"Frente a Inter Providencia","BICICLETEROS","Providencia 2169","-33.4222862","-70.6104754","EJE PROVIDENCIA","","","10"
"Frente a Joyas Lavin","BICICLETEROS","Providencia 2233","-33.4214408","-70.6091484","EJE PROVIDENCIA","","","10"
"Frente a Kika","BICICLETEROS","Nueva Providencia 2109","-33.423388","-70.6104057","EJE PROVIDENCIA","","","10"
"Frente a librería Galileo","BICICLETEROS","Providencia 1266","-33.4289926","-70.6206699","EJE PROVIDENCIA","","","10"
"Frente a Nutrafit","BICICLETEROS","Providencia 1144","-33.4296806","-70.62182709999999","EJE PROVIDENCIA","","","10"
"Frente a Pollini","BICICLETEROS","Providencia 2124","-33.4225738","-70.611069","EJE PROVIDENCIA","","","10"
"Frente a Salco Brand","BICICLETEROS","Providencia 2084","-33.4229001","-70.6116689","EJE PROVIDENCIA","","","10"
"Frente a Servi Estado","BICICLETEROS","Providencia 2483","-33.4194505","-70.60445180000001","EJE PROVIDENCIA","","","10"
"Frente a Vintage","BICICLETEROS","Providencia 2276","-33.4209767","-70.6084788","EJE PROVIDENCIA","","","10"
"Frente Banco de Chile","BICICLETEROS","Providencia 1920","-33.4245474","-70.6136643","EJE PROVIDENCIA","","","10"
"Frente Santa Isabel","BICICLETEROS","Providencia 2178","-33.4220749","-70.6102889","EJE PROVIDENCIA","","","10"
"Juventud Providencia","BICICLETEROS","Manuel Montt 101","-33.4298465","-70.61977160000001","SEDES MUNICIPALES","","","10"
"Manuel Montt","BICICLETEROS","Manuel Montt 017","-33.4286257","-70.6204072","EJE PROVIDENCIA","","","10"
"Municipalidad 1","BICICLETEROS","Carlos Larrain Claro Esquina Pedro de Valdivia","-33.4325376","-70.6093444","SEDES MUNICIPALES","","","10"
"Municipalidad 2","BICICLETEROS","Marchant Pereira","-33.432585","-70.6112211","SEDES MUNICIPALES","","","12"
"Plaza Juan XXIII","BICICLETEROS","Nueva Providencia Plaza Juan XXIII","-33.4278262","-70.6169575","EJE PROVIDENCIA","","","10"
"Primer y Segundo Juzgado","BICICLETEROS","Pedro de Valdivia 710","-33.429479","-70.6099239","EN CALZADA","","","20"
"Román Díaz","BICICLETEROS","Román Díaz 23","-33.4307018","-70.6225932","EN CALZADA","","","10"
"Salida Metro M. Montt","BICICLETEROS","Providencia 1328","-33.4286163","-70.6198576","EJE PROVIDENCIA","","","10"
"Salida Metro Pedro de Valdivia (Norte)","BICICLETEROS","Providencia Salida Metro Pedro de Valdivia (Norte)","-33.4249606","-70.6141286","EJE PROVIDENCIA","","","10"
"Salida Metro Pedro de Valdivia (Sur)","BICICLETEROS","Providencia 1909","-33.4250393","-70.61401360000001","EJE PROVIDENCIA","","","10"
"Santa Magdalena 1","BICICLETEROS","Santa Magdalena 51","-33.4209157","-70.6093861","EJE PROVIDENCIA","","","10"
"Santa Magdalena 2","BICICLETEROS","Santa Magdalena 102","-33.4204428","-70.6097166","EJE PROVIDENCIA","","","10"
"Seguridad Vecinal","BICICLETEROS","Alferez Real 966","-33.4391578","-70.6208366","SEDES MUNICIPALES","","","10"
"Spa Club Providencia","BICICLETEROS","Jorge Matte Gormaz 1650","-33.4314781","-70.59278670000001","SEDES MUNICIPALES","","","20"
"All Is Pussy Bikes","TALLERES Y TIENDAS DE BICICLETA","SANTA ISABEL  0151","-33.4471461","-70.6295736","Taller y tienda","","",""
"Bc-help","TALLERES Y TIENDAS DE BICICLETA","HOLANDA  079, LOCAL 211","-33.4188778","-70.6043538","Taller y tienda","","",""
"BeCykel","TALLERES Y TIENDAS DE BICICLETA","ITALIA  1194, LOCAL 5","-33.4456049","-70.6252186","Tienda","","",""
"Bicicletas Beltrán","TALLERES Y TIENDAS DE BICICLETA","LUIS BELTRAN  1563","-33.446986","-70.6201052","Taller","","",""
"Bicicletas Holanda","TALLERES Y TIENDAS DE BICICLETA","HOLANDA  29","-33.4197002","-70.6041949","Taller y tienda","","",""
"Bicicletas Infante","TALLERES Y TIENDAS DE BICICLETA","JOSE MANUEL INFANTE  1462","-33.4443845","-70.61964449999999","Taller","","",""
"Bicicletas Lopez","TALLERES Y TIENDAS DE BICICLETA","CERRITO  271","-33.4311391","-70.63562089999999","Taller","","",""
"Biciviva","TALLERES Y TIENDAS DE BICICLETA","NUEVA LOS LEONES  0156, LOCAL 3","-33.4187561","-70.6074423","Taller y tienda","","",""
"Bike Universe","TALLERES Y TIENDAS DE BICICLETA","TOBALABA  4073, LOCAL 102","-33.4330318","-70.58375769999999","Taller y tienda","","",""
"Cicles Villa","TALLERES Y TIENDAS DE BICICLETA","RANCAGUA  0188","-33.4409008","-70.63007","Taller y tienda","","",""
"Citycleta","TALLERES Y TIENDAS DE BICICLETA","SANTA MAGDALENA  41, LOCAL 5","-33.4208718","-70.6094286","Tienda","","",""
"Create Bikes","TALLERES Y TIENDAS DE BICICLETA","PROVIDENCIA  2358","-33.420228","-70.6069311","Tienda","","",""
"Custom Bikes","TALLERES Y TIENDAS DE BICICLETA","PROVIDENCIA 1100, LOCAL 61","-33.4299353","-70.6221939","Tienda","","",""
"Envy Bike","TALLERES Y TIENDAS DE BICICLETA","CONDELL  996","-33.443997","-70.6266601","Taller y tienda","","",""
"Full Pedal","TALLERES Y TIENDAS DE BICICLETA","SANTA ISABEL  0326, LOCAL A","-33.4465296","-70.6265504","Taller y tienda","","",""
"Live Bike","TALLERES Y TIENDAS DE BICICLETA","PROVIDENCIA  2594 , LOCAL Z-7","-33.4185029","-70.6031809","Taller y tienda","","",""
"Lobo Bike","TALLERES Y TIENDAS DE BICICLETA","DIAGONAL RANCAGUA  980","-33.4398082","-70.6200774","Tienda","","",""
"Mecanicleta","TALLERES Y TIENDAS DE BICICLETA","EL AGUILUCHO  3548","-33.4427141","-70.5943091","Taller y tienda","","",""
"mi bicio","TALLERES Y TIENDAS DE BICICLETA","ITALIA  963","-33.4435494","-70.6258484","Tienda","","",""
"Nacion Pedal","TALLERES Y TIENDAS DE BICICLETA","METRO MANUEL MONTT, LOCAL 22","-33.4289051","-70.619209","Taller y tienda","","",""
"Neocycles","TALLERES Y TIENDAS DE BICICLETA","BELLAVISTA  0894, LOCAL 3","-33.428609","-70.6253734","Taller y tienda","","",""
"Niubike","TALLERES Y TIENDAS DE BICICLETA","HOLANDA 2808","-33.4443357","-70.5974518","Taller y tienda","","",""
"Oxford Providencia","TALLERES Y TIENDAS DE BICICLETA","MANUEL MONTT  933","-33.4368064","-70.6161315","Tienda","","",""
"Profugos Bike","TALLERES Y TIENDAS DE BICICLETA","SANTA ISABEL  0301, LOCAL A","-33.4468525","-70.6271953","Taller y tienda","","",""
"República MTB","TALLERES Y TIENDAS DE BICICLETA","FRANCISCO BILBAO  1485","-33.4392535","-70.6140004","Taller y tienda","","",""
"Roda","TALLERES Y TIENDAS DE BICICLETA","ITALIA  1439, LOCAL 6","-33.4477519","-70.6248011","Tienda","","",""
"RTH Bicycles","TALLERES Y TIENDAS DE BICICLETA","MONSEÑOR MÜLLER  18","-33.436914","-70.6292945","Taller y tienda","","",""
"Servicio Express","TALLERES Y TIENDAS DE BICICLETA","PROVIDENCIA  2594, LOCAL Z-2","-33.4185029","-70.6031809","Taller","","",""
"Taller Antonio Bellet","TALLERES Y TIENDAS DE BICICLETA","ANTONIO BELLET  29","-33.4267892","-70.6166667","Taller","","",""
"Taller De Bicicletas Castro","TALLERES Y TIENDAS DE BICICLETA","DR. PEDRO LAUTARO FERRER  2810","-33.4448881","-70.6020941","Taller","","",""
"Traffik","TALLERES Y TIENDAS DE BICICLETA","DIEGO DE ALMAGRO  2815","-33.4379286","-70.5912562","Taller y tienda","","",""
"Urbanluz","TALLERES Y TIENDAS DE BICICLETA","FRANCISCO BILBAO  752","-33.4405628","-70.6228175","Taller y tienda","","",""
"Puyehue I","CICLOVÍAS","Antonio Varas a Manuel Montt","","","Vereda","2003","Bidireccional",""
"Regimiento Cazadores - Francisco Bilbao","CICLOVÍAS","Conexión entre ciclovias","","","Parque","2003","Bidireccional",""
"Puyehue II","CICLOVÍAS","Manuel Montt a Miguel Claro","","","Vereda","2004","Bidireccional",""
"Antonio Varas","CICLOVÍAS","Providencia a Diagonal Oriente","","","Vereda","2005","Bidireccional",""
"Parque Santa Maria","CICLOVÍAS","Puente Padre Letelier a Puente La Concepcion","","","Parque","2005","Bidireccional",""
"Parque Bustamante","CICLOVÍAS","Providencia a Santa Isabel","","","Parque","2007","Bidireccional",""
"Marin","CICLOVÍAS","Bustamante a Salvador","","","Vereda","2007 - 2008","Bidireccional",""
"Elena Blanco","CICLOVÍAS","José Manuel Infante a Miguel Claro","","","Vereda","2008","Bidireccional",""
"Pedro Leon Gallo","CICLOVÍAS","Salvador a José Manuel Infante","","","Vereda","2008","Bidireccional",""
"Providencia","CICLOVÍAS","Nueva Providencia con Antonio Varas a Plaza Felipe Dawes","","","Vereda","2009","Bidireccional",""
"Nueva Tobalaba","CICLOVÍAS","Vitacura a Andres Bello, por borde canal San Carlos","","","Parque","2011","Bidireccional",""
"Pocuro etapa IV","CICLOVÍAS","Regimiento Cazadores a Antonio Varas","","","Vereda","2011","Bidireccional",""
"General Calderón I","CICLOVÍAS","Andres Bello a Dr. Carlos Charlin","","","Calzada","2014","Bidireccional",""
"Ricardo Lyon","CICLOVÍAS","Pedro Lautaro Ferrer a Lota / Diego de Velasquez","","","Calzada","2014","Bidireccional",""
"Sendero Rústico","CICLOVÍAS","Pio Nono a Pedro de Valdivia Norte","","","Parque","2014","Bidireccional",""
"Mapocho 42k T1","CICLOVÍAS","Pío Nono a Puente del Arzobispo (incluído)","","","42k","2015","Bidireccional",""
"Miguel Claro","CICLOVÍAS","Providencia a Rengo","","","Calzada","2015","Bidireccional",""
"Mapocho 42k T2","CICLOVÍAS","Puente del Arzobispo a Huelén","","","42k","2015","Bidireccional",""
"Marín (conector)","CICLOVÍAS","Vicuña Mackenna a General Bustamante","","","Calzada","2015","O-P",""
"General Calderón II","CICLOVÍAS","Dr. Carlos Charlin a Perez Valenzuela","","","Calzada","2016","Bidireccional",""
"Perez Valenzuela","CICLOVÍAS","General Calderón a General Flores","","","Calzada","2016","Bidireccional",""
"General Flores","CICLOVÍAS","Perez Valenzuela a Cirujano Guzmán","","","Calzada","2016","N-S",""
"Cirujano Guzmán","CICLOVÍAS","General Flores a Providencia","","","Calzada","2016","N-S",""
"Parque Uruguay","CICLOVÍAS","Puente Los Leones a Huelén","","","42k","2016","Bidireccional",""
"Parque Balmaceda","CICLOVÍAS","Eliodoro Yañez a Vicuña Mackenna","","","Parque","-","Bidireccional",""
"Pocuro etapas I,II,III","CICLOVÍAS","Tobalaba a Regimiento Cazadores","","","Parque","1998-2000","Bidireccional",""
"Almirante Zegers","ZONAS 30","General Salvo - J. M. Infante","","","","","P-O",""
"Antonia Lopez de Bello","ZONAS 30","Pio Nono - Melchor Concha","","","","","P-O",""
"Arturo Claro","ZONAS 30","Manuel Montt - Antonio Varas","","","","","P-O",""
"Arzobispo Vicuña","ZONAS 30","Rodolfo Vergara - Obispo H. Salas","","","","","N-S",""
"Barcelona","ZONAS 30","Guardia Vieja - Pedro de Valdivia","","","","","P-O/O-P",""
"Bustos 1","ZONAS 30","Marchant Pereira  - Pedro de Valdivia","","","","","P-O/O-P",""
"Bustos 2","ZONAS 30","Pedro de Valdivia - El Bosque","","","","","P-O",""
"California 1","ZONAS 30","Pedro de Valdivia - Andacollo","","","","","P-O",""
"California 2","ZONAS 30","Andacollo - Ricardo Lyon","","","","","P-O/O-P",""
"California 3","ZONAS 30","Ricardo Lyon - Suecia","","","","","O-P",""
"Carmen Sylva","ZONAS 30","Suecia - Tobalaba","","","","","O-P",""
"Clemente Fabres","ZONAS 30","Julio Prado - Manuel Montt","","","","","P-O",""
"Clovis Montero","ZONAS 30","Arzobispo Vicuña - Obispo Donoso","","","","","O-P",""
"Coyancura","ZONAS 30","Las Bellotas - Ricardo Lyon","","","","","O-P",""
"Dardignac","ZONAS 30","Pío Nono - Mallinkrodt","","","","","O-P",""
"El Cacique","ZONAS 30","Los Navegantes - Los Conquistadores","","","","","N-S/S-N",""
"El Comendador 1","ZONAS 30","Mons. Carlos Casanueva - Pedro de Valdivia","","","","","P-O",""
"El Comendador 2","ZONAS 30","Pedro de Valdivia - El Cacique","","","","","P-O/O-P",""
"El Comendador 3","ZONAS 30","Padre Letelier - El Cerro","","","","","P-O/O-P",""
"El Mayorazgo","ZONAS 30","Mons. Carlos Casanueva - Los Misioneros","","","","","P-O/O-P",""
"El Rey","ZONAS 30","El Cerro - Los Misioneros","","","","","N-S/S-N",""
"El Vergel 1","ZONAS 30","Ricardo Lyon - Amapolas","","","","","P-O",""
"El Vergel 2","ZONAS 30","Amapolas - Tobalaba","","","","","P-O/O-P",""
"Europa 1","ZONAS 30","Guardia Vieja - Pedro de Valdivia","","","","","O-P",""
"Europa 2","ZONAS 30","Guardia Vieja - Ricardo Lyon","","","","","P-O",""
"Fidel Oteiza","ZONAS 30","Carlos Antunez - Pedro de Valdivia","","","","","O-P",""
"General Bari","ZONAS 30","General Salvo - J. M. Infante","","","","","N-S",""
"General del Canto","ZONAS 30","Nueva Providencia - Eliodoro Yañez","","","","","N-S",""
"General Parra","ZONAS 30","General Salvo - J. M. Infante","","","","","O-P",""
"General Salvo","ZONAS 30","Providencia - General Bari","","","","","S-N",""
"Granaderos","ZONAS 30","Manuel Barros Borgoño - Manuel Montt","","","","","P-O",""
"Guardia Vieja","ZONAS 30","Nueva Providencia - Europa","","","","","N-S",""
"Julio Prado","ZONAS 30","Santa Isabel - Rancagua","","","","","S-N",""
"Lo Contador","ZONAS 30","Mons. Carlos Casanueva - Mons. Carlos Casanueva","","","","","O-P",""
"Los Colonos","ZONAS 30","Lo Contador Norte - Lo contador Sur","","","","","N-S",""
"Los Jesuitas","ZONAS 30","Girardi - J. M. Infante","","","","","O-P",""
"Los Misioneros","ZONAS 30","Mons. Carlos Casanueva - El Cerro","","","","","P-O/O-P",""
"Los Navegantes 1","ZONAS 30","Mons. Carlos Casanueva - Pedro de Valdivia","","","","","O-P",""
"Los Navegantes 2","ZONAS 30","Pedro de Valdivia - El Cerro","","","","","P-O/O-P",""
"Los Pensamientos","ZONAS 30","El Vergel - Francisco Bilbao","","","","","N-S",""
"Manuel Antonio Maira","ZONAS 30","J. M. Infante - Manuel Montt","","","","","O-P",""
"Manuel Barros Borgoño","ZONAS 30","Nueva Providencia - Manuel Montt","","","","","N-S/S-N",""
"Maria Luisa Santander","ZONAS 30","Bustamante - Seminario","","","","","O-P",""
"Monitor Araucano","ZONAS 30","Antonia Lopez de Bello - Montecarmelo","","","","","P-O/O-P",""
"Monseñor Miller","ZONAS 30","Obispo Perez de E. - M.L.Santander","","","","","N-S",""
"Nestor Aracena","ZONAS 30","Salvador - Julio Prado","","","","","P-O",""
"Nueva Dardignac","ZONAS 30","Mallinkrodt - Capellan Abarzua","","","","","P-O/O-P",""
"Obispo Donoso","ZONAS 30","Providencia - Clovis Montero","","","","","S-N",""
"Obispo H. Salas","ZONAS 30","Seminario - Condell","","","","","P-O",""
"Obispo Perez de Espinoza 1","ZONAS 30","Providencia - Rodolfo Vergara","","","","","N-S",""
"Obispo Perez de Espinoza 2","ZONAS 30","Obispo Perez de Espinoza - Obispo Donoso","","","","","P-O",""
"Padre Letelier","ZONAS 30","Los Misioneros - Los Conquistadores","","","","","N-S/S-N",""
"Roberto del Rio 1","ZONAS 30","Las Hortensias - Eliodoro Yañez","","","","","N-S/S-N",""
"Roberto del Rio 2","ZONAS 30","Eliodoro Yañez - Pocuro","","","","","S-N",""
"Roberto del Rio 3","ZONAS 30","Pocuro - Francisco Bilbao","","","","","N-S/S-N",""
"Roberto del Rio 4","ZONAS 30","Francisco Bilbao - Bustos","","","","","N-S",""
"Rodolfo Vergara Antunez","ZONAS 30","Seminario - Monseñor Miller","","","","","P-O",""
"Roman Diaz 1","ZONAS 30","Cano y Aponte - Providencia","","","","","N-S",""
"Roman Diaz 2","ZONAS 30","Francisco Bilbao - Cano y Aponte","","","","","S-N",""
"Roman Diaz 3","ZONAS 30","Manuel Antonio Maira - Francisco Bilbao","","","","","N-S",""
"Ruperto Correa","ZONAS 30","Diego de Almagro - San Juan de Luz","","","","","P-O/O-P",""
"Santa Victoria 1","ZONAS 30","Bustamante - Seminario","","","","","P-O/O-P",""
"Santa Victoria 2","ZONAS 30","Seminario - Condell","","","","","O-P",""
